{
 "cells": [
  {
   "cell_type": "code",
   "execution_count": 53,
   "metadata": {},
   "outputs": [],
   "source": [
    "import pandas as pd\n",
    "import requests\n",
    "import json\n",
    "from simplejson import JSONDecodeError\n",
    "import warnings\n",
    "import psycopg2\n",
    "import yaml"
   ]
  },
  {
   "cell_type": "code",
   "execution_count": 54,
   "metadata": {},
   "outputs": [],
   "source": [
    "airports_spain = pd.read_csv('./data/airports_spain.csv')[['ICAO', 'City']]"
   ]
  },
  {
   "cell_type": "code",
   "execution_count": 55,
   "metadata": {},
   "outputs": [],
   "source": [
    "#https://avwx.rest/\n",
    "\n",
    "with open('./keys/keys.yml') as file:\n",
    "    keys = yaml.load(file)\n",
    "\n",
    "headers = {\n",
    "  'Authorization': keys['key1'],\n",
    "  'Content-Type': 'application/json'\n",
    "}\n",
    "\n",
    "headers2 = {\n",
    "  'Authorization': keys['key2'],\n",
    "  'Content-Type': 'application/json'\n",
    "}\n",
    "\n",
    "reporting = \"true\"\n",
    "formatting = \"json\"\n",
    "onfail = \"error\""
   ]
  },
  {
   "cell_type": "code",
   "execution_count": 56,
   "metadata": {},
   "outputs": [],
   "source": [
    "conn = psycopg2.connect(\n",
    "    host=keys['pghost'],\n",
    "    database=\"metar\",\n",
    "    port=35728,\n",
    "    user=keys['pguser'],\n",
    "    password=keys['pgpass'])"
   ]
  },
  {
   "cell_type": "code",
   "execution_count": 57,
   "metadata": {},
   "outputs": [],
   "source": [
    "def parseo (url, city):\n",
    "    \n",
    "    #Request\n",
    "    response = requests.get( url, headers = headers, verify=False )\n",
    "    if response.status_code == 400 or response.status_code == 204:\n",
    "        return None\n",
    "    else:\n",
    "        json_response = json.loads(response.text)\n",
    "\n",
    "        #Parsing\n",
    "        metar = json_response['raw']\n",
    "        station = json_response['station']\n",
    "        pressure = json_response['altimeter']['value']\n",
    "        pressure_unit = json_response['units']['altimeter']\n",
    "        wind_direction = json_response['wind_direction']['value']\n",
    "        wind_unit = 'º'\n",
    "        wind_speed = json_response['wind_speed']['value'] \n",
    "        wind_speed_unit = json_response['units']['wind_speed']\n",
    "        visibility_str = json_response['visibility']['repr']\n",
    "        visibility_number = json_response['visibility']['value']\n",
    "        visibility_unit = json_response['units']['visibility']\n",
    "        temperature = json_response['temperature']['value'] \n",
    "        temperature_unit = json_response['units']['temperature']\n",
    "        remarks = json_response['remarks']\n",
    "        flight_rules = json_response['flight_rules']\n",
    "        time = json_response['time']['dt']\n",
    "        identificadorUnico = str(time) + station\n",
    "\n",
    "        clouds = []\n",
    "        if not json_response['clouds']:\n",
    "            clouds = [\"No clouds\"]\n",
    "        else:\n",
    "            for element in json_response['clouds']:\n",
    "                clouds.append(element['repr'])\n",
    "        if json_response['wind_gust'] == None:\n",
    "            json_response['wind_gust'] = 0\n",
    "        wind_gust = json_response['wind_gust']\n",
    "        wind_gust_unit = json_response['units']['wind_speed']\n",
    "        try: \n",
    "            wind_direction_var_1 = json_response['wind_variable_direction'][0]['value']\n",
    "            wind_direction_var_1_unit = 'º'\n",
    "        except:\n",
    "            wind_direction_var_1 = None\n",
    "            wind_direction_var_1_unit = None\n",
    "        try: \n",
    "            wind_direction_var_2 = json_response['wind_variable_direction'][1]['value']\n",
    "            wind_direction_var_2_unit = 'º'\n",
    "        except:\n",
    "            wind_direction_var_2 = None\n",
    "            wind_direction_var_2_unit = None\n",
    "\n",
    "        #Storing\n",
    "        readyforinsertion = (identificadorUnico, metar, time, station, city, pressure, pressure_unit, clouds, wind_direction, wind_unit, wind_speed, wind_speed_unit, wind_direction_var_1, wind_direction_var_1_unit, \n",
    "                             wind_direction_var_2, wind_direction_var_2_unit, visibility_str, visibility_number, visibility_unit, temperature, temperature_unit, remarks, flight_rules)\n",
    "        return readyforinsertion"
   ]
  },
  {
   "cell_type": "code",
   "execution_count": 58,
   "metadata": {},
   "outputs": [],
   "source": [
    "with open('./sql.yml') as file:\n",
    "    sql_sentences = yaml.load(file)\n",
    "\n",
    "try:\n",
    "    cur = conn.cursor()\n",
    "    cur.execute(sql_sentences['create_table'])\n",
    "    conn.commit()\n",
    "    cur.close()\n",
    "except:\n",
    "    print(\"Rollback\")\n",
    "    conn.rollback()"
   ]
  },
  {
   "cell_type": "code",
   "execution_count": 59,
   "metadata": {},
   "outputs": [
    {
     "name": "stdout",
     "output_type": "stream",
     "text": [
      "('GCFV 101000Z 04016KT 9999 BKN022 25/19 Q1014', '2020-08-10T10:00:00Z', 'GCFV', 'Fuerteventura', 1014, 'hPa', ['BKN022'], 40, 'º', 16, 'kt', None, None, None, None, '9999', 9999, 'm', 25, 'C', '', 'MVFR')\n",
      "Insertada\n",
      "('GCHI 101000Z 36013KT 340V040 9999 FEW012 SCT021 24/21 Q1016', '2020-08-10T10:00:00Z', 'GCHI', 'Hierro', 1016, 'hPa', ['FEW012', 'SCT021'], 360, 'º', 13, 'kt', 340, 'º', 40, 'º', '9999', 9999, 'm', 24, 'C', '', 'VFR')\n",
      "Insertada\n",
      "('GCLA 101000Z 01015KT 9999 BKN030 25/20 Q1017', '2020-08-10T10:00:00Z', 'GCLA', 'Santa Cruz De La Palma', 1017, 'hPa', ['BKN030'], 10, 'º', 15, 'kt', None, None, None, None, '9999', 9999, 'm', 25, 'C', '', 'MVFR')\n",
      "Insertada\n",
      "('GCLP 101000Z 36024KT 9999 SCT020 BKN025 24/18 Q1015 NOSIG', '2020-08-10T10:00:00Z', 'GCLP', 'Gran Canaria', 1015, 'hPa', ['SCT020', 'BKN025'], 360, 'º', 24, 'kt', None, None, None, None, '9999', 9999, 'm', 24, 'C', 'NOSIG', 'MVFR')\n",
      "Insertada\n",
      "('GCRR 101000Z 01018KT 340V050 9999 FEW024 26/18 Q1014', '2020-08-10T10:00:00Z', 'GCRR', 'Arrecife', 1014, 'hPa', ['FEW024'], 10, 'º', 18, 'kt', 340, 'º', 50, 'º', '9999', 9999, 'm', 26, 'C', '', 'VFR')\n",
      "Insertada\n",
      "('GCTS 101000Z VRB09KT 9999 FEW030 27/18 Q1015 NOSIG', '2020-08-10T10:00:00Z', 'GCTS', 'Tenerife', 1015, 'hPa', ['FEW030'], None, 'º', 9, 'kt', None, None, None, None, '9999', 9999, 'm', 27, 'C', 'NOSIG', 'VFR')\n",
      "Insertada\n",
      "('GCXO 101000Z 30019KT 270V330 9999 4500NW BCFG BKN006 19/18 Q1018 BECMG BKN010', '2020-08-10T10:00:00Z', 'GCXO', 'Tenerife', 1018, 'hPa', ['BKN006'], 300, 'º', 19, 'kt', 270, 'º', 330, 'º', '9999', 9999, 'm', 19, 'C', 'BECMG BKN010', 'IFR')\n",
      "Insertada\n",
      "('GEML 101000Z 06007KT 020V130 CAVOK 28/22 Q1011', '2020-08-10T10:00:00Z', 'GEML', 'Melilla', 1011, 'hPa', ['No clouds'], 60, 'º', 7, 'kt', 20, 'º', 130, 'º', 'CAVOK', 9999, 'm', 28, 'C', '', 'VFR')\n",
      "Insertada\n",
      "('LEAB 101000Z 18009KT 160V220 CAVOK 31/06 Q1016 NOSIG', '2020-08-10T10:00:00Z', 'LEAB', 'Albacete', 1016, 'hPa', ['No clouds'], 180, 'º', 9, 'kt', 160, 'º', 220, 'º', 'CAVOK', 9999, 'm', 31, 'C', 'NOSIG', 'VFR')\n",
      "Insertada\n",
      "('LEAL 101000Z 09006KT 060V130 CAVOK 31/16 Q1013 NOSIG', '2020-08-10T10:00:00Z', 'LEAL', 'Alicante', 1013, 'hPa', ['No clouds'], 90, 'º', 6, 'kt', 60, 'º', 130, 'º', 'CAVOK', 9999, 'm', 31, 'C', 'NOSIG', 'VFR')\n",
      "Insertada\n",
      "('LEAM 101000Z 17005KT 120V210 CAVOK 29/24 Q1011', '2020-08-10T10:00:00Z', 'LEAM', 'Almeria', 1011, 'hPa', ['No clouds'], 170, 'º', 5, 'kt', 120, 'º', 210, 'º', 'CAVOK', 9999, 'm', 29, 'C', '', 'VFR')\n",
      "Insertada\n",
      "('LEAS 101000Z 29007KT 260V330 9999 BKN027 21/17 Q1014 NOSIG', '2020-08-10T10:00:00Z', 'LEAS', 'Aviles', 1014, 'hPa', ['BKN027'], 290, 'º', 7, 'kt', 260, 'º', 330, 'º', '9999', 9999, 'm', 21, 'C', 'NOSIG', 'MVFR')\n",
      "Insertada\n",
      "('LEBA 101000Z 32006KT 260V070 CAVOK 25/20 Q1013', '2020-08-10T10:00:00Z', 'LEBA', 'Cordoba', 1013, 'hPa', ['No clouds'], 320, 'º', 6, 'kt', 260, 'º', 70, 'º', 'CAVOK', 9999, 'm', 25, 'C', '', 'VFR')\n",
      "Insertada\n",
      "('LEBB 101000Z VRB02KT 9999 BKN019 24/19 Q1013 NOSIG', '2020-08-10T10:00:00Z', 'LEBB', 'Bilbao', 1013, 'hPa', ['BKN019'], None, 'º', 2, 'kt', None, None, None, None, '9999', 9999, 'm', 24, 'C', 'NOSIG', 'MVFR')\n",
      "Insertada\n",
      "('LEBL 101000Z 19008KT CAVOK 28/23 Q1014 NOSIG', '2020-08-10T10:00:00Z', 'LEBL', 'Barcelona', 1014, 'hPa', ['No clouds'], 190, 'º', 8, 'kt', None, None, None, None, 'CAVOK', 9999, 'm', 28, 'C', 'NOSIG', 'VFR')\n",
      "Insertada\n",
      "('LEBZ 101000Z 32003KT CAVOK 24/14 Q1012', '2020-08-10T10:00:00Z', 'LEBZ', 'Badajoz', 1012, 'hPa', ['No clouds'], 320, 'º', 3, 'kt', None, None, None, None, 'CAVOK', 9999, 'm', 24, 'C', '', 'VFR')\n",
      "Insertada\n",
      "('LECO 101000Z 36005KT 300V050 9999 BKN027 20/17 Q1015 NOSIG', '2020-08-10T10:00:00Z', 'LECO', 'La Coruna', 1015, 'hPa', ['BKN027'], 360, 'º', 5, 'kt', 300, 'º', 50, 'º', '9999', 9999, 'm', 20, 'C', 'NOSIG', 'MVFR')\n",
      "Insertada\n",
      "('LEGA 101000Z 03005KT 360V090 CAVOK 32/07 Q1015', '2020-08-10T10:00:00Z', 'LEGA', 'Granada', 1015, 'hPa', ['No clouds'], 30, 'º', 5, 'kt', 360, 'º', 90, 'º', 'CAVOK', 9999, 'm', 32, 'C', '', 'VFR')\n",
      "Insertada\n",
      "('LEGE 101000Z 20003KT 150V270 CAVOK 30/16 Q1014', '2020-08-10T10:00:00Z', 'LEGE', 'Gerona', 1014, 'hPa', ['No clouds'], 200, 'º', 3, 'kt', 150, 'º', 270, 'º', 'CAVOK', 9999, 'm', 30, 'C', '', 'VFR')\n",
      "Insertada\n",
      "('LEGR 101000Z 35005KT 310V020 9999 FEW060 32/08 Q1014', '2020-08-10T10:00:00Z', 'LEGR', 'Granada', 1014, 'hPa', ['FEW060'], 350, 'º', 5, 'kt', 310, 'º', 20, 'º', '9999', 9999, 'm', 32, 'C', '', 'VFR')\n",
      "Insertada\n",
      "('LEGT 101000Z 10003KT 9999 SCT080TCU 27/12 Q1015', '2020-08-10T10:00:00Z', 'LEGT', 'Madrid', 1015, 'hPa', ['SCT080TCU'], 100, 'º', 3, 'kt', None, None, None, None, '9999', 9999, 'm', 27, 'C', '', 'VFR')\n",
      "Insertada\n",
      "('LEIB 101000Z 08008KT 050V120 CAVOK 29/22 Q1013 NOSIG', '2020-08-10T10:00:00Z', 'LEIB', 'Ibiza', 1013, 'hPa', ['No clouds'], 80, 'º', 8, 'kt', 50, 'º', 120, 'º', 'CAVOK', 9999, 'm', 29, 'C', 'NOSIG', 'VFR')\n",
      "Insertada\n",
      "('LEJR 101030Z 22005KT 110V260 9999 FEW015 28/23 Q1011', '2020-08-10T10:30:00Z', 'LEJR', 'Jerez', 1011, 'hPa', ['FEW015'], 220, 'º', 5, 'kt', 110, 'º', 260, 'º', '9999', 9999, 'm', 28, 'C', '', 'VFR')\n",
      "Insertada\n",
      "('LELC 101000Z 05010KT 010V090 CAVOK 30/17 Q1012 NOSIG', '2020-08-10T10:00:00Z', 'LELC', 'Murcia', 1012, 'hPa', ['No clouds'], 50, 'º', 10, 'kt', 10, 'º', 90, 'º', 'CAVOK', 9999, 'm', 30, 'C', 'NOSIG', 'VFR')\n",
      "Insertada\n",
      "('LEMD 100930Z 36003KT 330V030 9999 FEW050CB SCT080 27/11 Q1015 TEMPO TSRA', '2020-08-10T09:30:00Z', 'LEMD', 'Madrid', 1015, 'hPa', ['FEW050CB', 'SCT080'], 360, 'º', 3, 'kt', 330, 'º', 30, 'º', '9999', 9999, 'm', 27, 'C', 'TEMPO TSRA', 'VFR')\n",
      "Insertada\n",
      "('LEMG 101000Z 28003KT 9999 FEW040 31/18 Q1012 TEMPO TSRA FEW020CB', '2020-08-10T10:00:00Z', 'LEMG', 'Malaga', 1012, 'hPa', ['FEW040'], 280, 'º', 3, 'kt', None, None, None, None, '9999', 9999, 'm', 31, 'C', 'TEMPO TSRA FEW020CB', 'VFR')\n",
      "Insertada\n",
      "('LEMH 101000Z 17007KT 120V230 9999 FEW025 29/23 Q1015', '2020-08-10T10:00:00Z', 'LEMH', 'Menorca', 1015, 'hPa', ['FEW025'], 170, 'º', 7, 'kt', 120, 'º', 230, 'º', '9999', 9999, 'm', 29, 'C', '', 'VFR')\n",
      "Insertada\n",
      "('LEMO 101030Z VRB02KT 9999 FEW020TCU SCT040 28/21 Q1012 NOSIG', '2020-08-10T10:30:00Z', 'LEMO', 'Sevilla', 1012, 'hPa', ['FEW020TCU', 'SCT040'], None, 'º', 2, 'kt', None, None, None, None, '9999', 9999, 'm', 28, 'C', 'NOSIG', 'VFR')\n",
      "Insertada\n",
      "Airport LEOC data not found\n",
      "('LEPP 101030Z 36003KT 300V040 9999 FEW039 28/17 Q1014', '2020-08-10T10:30:00Z', 'LEPP', 'Pamplona', 1014, 'hPa', ['FEW039'], 360, 'º', 3, 'kt', 300, 'º', 40, 'º', '9999', 9999, 'm', 28, 'C', '', 'VFR')\n",
      "Insertada\n",
      "('LERI 101000Z VRB03KT CAVOK 32/11 Q1013 NOSIG', '2020-08-10T10:00:00Z', 'LERI', 'Murcia', 1013, 'hPa', ['No clouds'], None, 'º', 3, 'kt', None, None, None, None, 'CAVOK', 9999, 'm', 32, 'C', 'NOSIG', 'VFR')\n",
      "Insertada\n",
      "('LERS 101030Z 16005KT 110V200 9999 FEW025 29/22 Q1014', '2020-08-10T10:30:00Z', 'LERS', 'Reus', 1014, 'hPa', ['FEW025'], 160, 'º', 5, 'kt', 110, 'º', 200, 'º', '9999', 9999, 'm', 29, 'C', '', 'VFR')\n",
      "Insertada\n",
      "('LERT 101000Z 20007KT 170V240 9999 SCT010 BKN016 26/22 Q1011 NOSIG', '2020-08-10T10:00:00Z', 'LERT', 'Rota', 1011, 'hPa', ['SCT010', 'BKN016'], 200, 'º', 7, 'kt', 170, 'º', 240, 'º', '9999', 9999, 'm', 26, 'C', 'NOSIG', 'MVFR')\n",
      "Insertada\n",
      "('LESA 101030Z 10005KT 060V160 CAVOK 29/13 Q1014', '2020-08-10T10:30:00Z', 'LESA', 'Salamanca', 1014, 'hPa', ['No clouds'], 100, 'º', 5, 'kt', 60, 'º', 160, 'º', 'CAVOK', 9999, 'm', 29, 'C', '', 'VFR')\n",
      "Insertada\n",
      "('LESB 101000Z AUTO 22009KT CAVOK 33/16 Q1015', '2020-08-10T10:00:00Z', 'LESB', 'Son Bonet', 1015, 'hPa', ['No clouds'], 220, 'º', 9, 'kt', None, None, None, None, 'CAVOK', 9999, 'm', 33, 'C', '', 'VFR')\n",
      "Insertada\n",
      "Airport LESL data not found\n",
      "('LESO 101030Z 36005KT 320V050 9999 SCT014 BKN024 24/21 Q1013', '2020-08-10T10:30:00Z', 'LESO', 'San Sebastian', 1013, 'hPa', ['SCT014', 'BKN024'], 360, 'º', 5, 'kt', 320, 'º', 50, 'º', '9999', 9999, 'm', 24, 'C', '', 'MVFR')\n",
      "Insertada\n",
      "('LEST 101030Z 04007KT 350V080 9999 FEW012 OVC016 19/15 Q1015 NOSIG', '2020-08-10T10:30:00Z', 'LEST', 'Santiago', 1015, 'hPa', ['FEW012', 'OVC016'], 40, 'º', 7, 'kt', 350, 'º', 80, 'º', '9999', 9999, 'm', 19, 'C', 'NOSIG', 'MVFR')\n",
      "Insertada\n",
      "('LESU 101000Z VRB02KT 9999 FEW070 23/13 Q1019', '2020-08-10T10:00:00Z', 'LESU', 'Seo De Urgel', 1019, 'hPa', ['FEW070'], None, 'º', 2, 'kt', None, None, None, None, '9999', 9999, 'm', 23, 'C', '', 'VFR')\n",
      "Insertada\n",
      "('LETO 101000Z 20003KT 140V260 9999 SCT069CB 27/11 Q1015 TEMPO TSRA', '2020-08-10T10:00:00Z', 'LETO', 'Madrid', 1015, 'hPa', ['SCT069CB'], 200, 'º', 3, 'kt', 140, 'º', 260, 'º', '9999', 9999, 'm', 27, 'C', 'TEMPO TSRA', 'VFR')\n",
      "Insertada\n",
      "('LEVC 101030Z 13006KT 080V200 CAVOK 32/21 Q1013 NOSIG', '2020-08-10T10:30:00Z', 'LEVC', 'Valencia', 1013, 'hPa', ['No clouds'], 130, 'º', 6, 'kt', 80, 'º', 200, 'º', 'CAVOK', 9999, 'm', 32, 'C', 'NOSIG', 'VFR')\n",
      "Insertada\n",
      "('LEVD 101030Z 23008KT 170V280 CAVOK 29/11 Q1014', '2020-08-10T10:30:00Z', 'LEVD', 'Valladolid', 1014, 'hPa', ['No clouds'], 230, 'º', 8, 'kt', 170, 'º', 280, 'º', 'CAVOK', 9999, 'm', 29, 'C', '', 'VFR')\n",
      "Insertada\n",
      "('LEVT 101030Z 02004KT 9999 FEW030 26/18 Q1014', '2020-08-10T10:30:00Z', 'LEVT', 'Vitoria', 1014, 'hPa', ['FEW030'], 20, 'º', 4, 'kt', None, None, None, None, '9999', 9999, 'm', 26, 'C', '', 'VFR')\n",
      "Insertada\n",
      "('LEVX 101030Z VRB04KT 9999 SCT025 26/17 Q1013 NOSIG', '2020-08-10T10:30:00Z', 'LEVX', 'Vigo', 1013, 'hPa', ['SCT025'], None, 'º', 4, 'kt', None, None, None, None, '9999', 9999, 'm', 26, 'C', 'NOSIG', 'VFR')\n",
      "Insertada\n",
      "('LEXJ 101030Z 27003KT 190V350 9999 BKN031 23/19 Q1013', '2020-08-10T10:30:00Z', 'LEXJ', 'Santander', 1013, 'hPa', ['BKN031'], 270, 'º', 3, 'kt', 190, 'º', 350, 'º', '9999', 9999, 'm', 23, 'C', '', 'VFR')\n",
      "Insertada\n",
      "('LEZG 101030Z 08008KT 040V120 CAVOK 31/17 Q1013', '2020-08-10T10:30:00Z', 'LEZG', 'Zaragoza', 1013, 'hPa', ['No clouds'], 80, 'º', 8, 'kt', 40, 'º', 120, 'º', 'CAVOK', 9999, 'm', 31, 'C', '', 'VFR')\n",
      "Insertada\n",
      "('LEZL 101030Z 27003KT CAVOK 29/19 Q1011 NOSIG', '2020-08-10T10:30:00Z', 'LEZL', 'Sevilla', 1011, 'hPa', ['No clouds'], 270, 'º', 3, 'kt', None, None, None, None, 'CAVOK', 9999, 'm', 29, 'C', 'NOSIG', 'VFR')\n",
      "Insertada\n",
      "('LEPA 101030Z 24010KT CAVOK 31/22 Q1014 NOSIG', '2020-08-10T10:30:00Z', 'LEPA', 'Palma de Mallorca', 1014, 'hPa', ['No clouds'], 240, 'º', 10, 'kt', None, None, None, None, 'CAVOK', 9999, 'm', 31, 'C', 'NOSIG', 'VFR')\n",
      "Insertada\n",
      "('GCGM 101030Z 23011KT 200V260 9999 FEW015 24/19 Q1016 RMK R09/24007KT 180V280 ARP/24009KT 200V280', '2020-08-10T10:30:00Z', 'GCGM', 'La Gomera', 1016, 'hPa', ['FEW015'], 230, 'º', 11, 'kt', 200, 'º', 260, 'º', '9999', 9999, 'm', 24, 'C', 'RMK R09/24007KT 180V280 ARP/24009KT 200V280', 'VFR')\n",
      "Insertada\n",
      "('LELO 101000Z 10004KT 050V170 CAVOK 27/16 Q1013', '2020-08-10T10:00:00Z', 'LELO', 'Logroño-Agoncillo', 1013, 'hPa', ['No clouds'], 100, 'º', 4, 'kt', 50, 'º', 170, 'º', 'CAVOK', 9999, 'm', 27, 'C', '', 'VFR')\n",
      "Insertada\n",
      "('LELN 101030Z 11005KT 9999 FEW040 26/12 Q1014', '2020-08-10T10:30:00Z', 'LELN', 'Leon', 1014, 'hPa', ['FEW040'], 110, 'º', 5, 'kt', None, None, None, None, '9999', 9999, 'm', 26, 'C', '', 'VFR')\n",
      "Insertada\n",
      "('LEBG 101030Z 19013G24KT 140V230 CAVOK 30/07 Q1015', '2020-08-10T10:30:00Z', 'LEBG', 'Burgos', 1015, 'hPa', ['No clouds'], 190, 'º', 13, 'kt', 140, 'º', 230, 'º', 'CAVOK', 9999, 'm', 30, 'C', '', 'VFR')\n",
      "Insertada\n",
      "('LELL 100930Z 16004KT CAVOK 32/10 Q1014', '2020-08-10T09:30:00Z', 'LELL', 'Sabadell', 1014, 'hPa', ['No clouds'], 160, 'º', 4, 'kt', None, None, None, None, 'CAVOK', 9999, 'm', 32, 'C', '', 'VFR')\n",
      "Insertada\n",
      "('LEDA 101030Z AUTO 07007KT 040V120 CAVOK 29/12 Q1014', '2020-08-10T10:30:00Z', 'LEDA', 'Lleida', 1014, 'hPa', ['No clouds'], 70, 'º', 7, 'kt', 40, 'º', 120, 'º', 'CAVOK', 9999, 'm', 29, 'C', '', 'VFR')\n",
      "Insertada\n",
      "('LEHC 101000Z 11010KT 070V160 CAVOK 32/10 Q1015', '2020-08-10T10:00:00Z', 'LEHC', 'Huesca', 1015, 'hPa', ['No clouds'], 110, 'º', 10, 'kt', 70, 'º', 160, 'º', 'CAVOK', 9999, 'm', 32, 'C', '', 'VFR')\n",
      "Insertada\n",
      "('LERL 101000Z 19004KT 150V320 9999 TSRA FEW049CB 20/17 Q1016', '2020-08-10T10:00:00Z', 'LERL', 'Ciudad Real', 1016, 'hPa', ['FEW049CB'], 190, 'º', 4, 'kt', 150, 'º', 320, 'º', '9999', 9999, 'm', 20, 'C', '', 'VFR')\n",
      "Insertada\n",
      "Airport LECD data not found\n",
      "Airport LEFM data not found\n",
      "Airport SVSJ data not found\n",
      "Airport LECU data not found\n",
      "Airport LEDS data not found\n",
      "('LETL 101030Z AUTO 21014KT 170V240 CAVOK 31/06 Q1018', '2020-08-10T10:30:00Z', 'LETL', 'Teruel', 1018, 'hPa', ['No clouds'], 210, 'º', 14, 'kt', 170, 'º', 240, 'º', 'CAVOK', 9999, 'm', 31, 'C', '', 'VFR')\n",
      "Insertada\n",
      "('LEAG 101030Z AUTO 07004KT 030V100 CAVOK 26/22 Q1012', '2020-08-10T10:30:00Z', 'LEAG', 'Algeciras', 1012, 'hPa', ['No clouds'], 70, 'º', 4, 'kt', 30, 'º', 100, 'º', 'CAVOK', 9999, 'm', 26, 'C', '', 'VFR')\n",
      "Insertada\n",
      "('LEMI 101030Z 07004KT CAVOK 33/14 Q1013', '2020-08-10T10:30:00Z', 'LEMI', 'Murcia', 1013, 'hPa', ['No clouds'], 70, 'º', 4, 'kt', None, None, None, None, 'CAVOK', 9999, 'm', 33, 'C', '', 'VFR')\n",
      "Insertada\n"
     ]
    }
   ],
   "source": [
    "warnings.simplefilter(\"ignore\")\n",
    "\n",
    "for airport in airports_spain.itertuples():\n",
    "    url = \"https://avwx.rest/api/metar/\" + airport[1] + \"?reporting=\" + reporting + \"&format=\" + formatting + \"&onfail=\" + onfail\n",
    "    data = parseo(url, airport[2])\n",
    "    if data == None:\n",
    "        print('Airport ' + airport[1] + ' data not found')\n",
    "        continue\n",
    "    else:\n",
    "        print(data)\n",
    "        try:\n",
    "            cur = conn.cursor()\n",
    "            cur.execute(sql_sentences['insert_table'], data)\n",
    "            conn.commit()\n",
    "            print(\"Insertada\")\n",
    "            cur.close()\n",
    "        except Exception as e:\n",
    "            print(\"Rollback\")\n",
    "            print(e)\n",
    "            conn.rollback()"
   ]
  },
  {
   "cell_type": "code",
   "execution_count": 60,
   "metadata": {},
   "outputs": [],
   "source": [
    "conn.close()"
   ]
  },
  {
   "cell_type": "code",
   "execution_count": null,
   "metadata": {},
   "outputs": [],
   "source": []
  },
  {
   "cell_type": "code",
   "execution_count": null,
   "metadata": {},
   "outputs": [],
   "source": []
  },
  {
   "cell_type": "code",
   "execution_count": null,
   "metadata": {},
   "outputs": [],
   "source": []
  },
  {
   "cell_type": "code",
   "execution_count": null,
   "metadata": {},
   "outputs": [],
   "source": []
  },
  {
   "cell_type": "code",
   "execution_count": null,
   "metadata": {},
   "outputs": [],
   "source": []
  },
  {
   "cell_type": "code",
   "execution_count": null,
   "metadata": {},
   "outputs": [],
   "source": []
  },
  {
   "cell_type": "code",
   "execution_count": null,
   "metadata": {},
   "outputs": [],
   "source": []
  },
  {
   "cell_type": "code",
   "execution_count": null,
   "metadata": {},
   "outputs": [],
   "source": []
  }
 ],
 "metadata": {
  "kernelspec": {
   "display_name": "Python 3",
   "language": "python",
   "name": "python3"
  },
  "language_info": {
   "codemirror_mode": {
    "name": "ipython",
    "version": 3
   },
   "file_extension": ".py",
   "mimetype": "text/x-python",
   "name": "python",
   "nbconvert_exporter": "python",
   "pygments_lexer": "ipython3",
   "version": "3.8.2"
  }
 },
 "nbformat": 4,
 "nbformat_minor": 4
}