metar,time,station,city,pressure,pressure_unit,clouds,wind_direction,wind_unit,wind_speed,wind_speed_unit,wind_direction_var_1,wind_direction_var_1_unit,wind_direction_var_2,wind_direction_var_2_unit,visibility_str,visibility_number,visibility_unit,temperature,temperature_unit,remarks,flight_rules
GCFV 101100Z 04016KT 9999 FEW025 26/19 Q1014,2020-08-10 11:00:00.000000,GCFV,Fuerteventura,1014,hPa,{FEW025},40,º,16,kt,,,,,9999,9999,m,26,C,"",VFR
GCHI 101100Z 01009KT 340V040 9999 DZ FEW010 SCT014 BKN020 23/21 Q1016,2020-08-10 11:00:00.000000,GCHI,Hierro,1016,hPa,"{FEW010,SCT014,BKN020}",10,º,9,kt,340,º,40,º,9999,9999,m,23,C,"",MVFR
GCLA 101100Z 01014KT 340V040 9999 BKN030 26/20 Q1017,2020-08-10 11:00:00.000000,GCLA,Santa Cruz De La Palma,1017,hPa,{BKN030},10,º,14,kt,340,º,40,º,9999,9999,m,26,C,"",MVFR
GCLP 101100Z 01024KT 9999 BKN022 25/18 Q1015 NOSIG,2020-08-10 11:00:00.000000,GCLP,Gran Canaria,1015,hPa,{BKN022},10,º,24,kt,,,,,9999,9999,m,25,C,NOSIG,MVFR
GCRR 101100Z 36018KT 330V050 9999 FEW024 26/18 Q1014,2020-08-10 11:00:00.000000,GCRR,Arrecife,1014,hPa,{FEW024},360,º,18,kt,330,º,50,º,9999,9999,m,26,C,"",VFR
GCTS 101100Z 09018KT 9999 FEW030 27/19 Q1015 NOSIG,2020-08-10 11:00:00.000000,GCTS,Tenerife,1015,hPa,{FEW030},90,º,18,kt,,,,,9999,9999,m,27,C,NOSIG,VFR
GCXO 101100Z 30016KT 9999 1500NW R30/P2000 R12/0500D DZ BCFG SCT003 BKN006 19/18 Q1018 BECMG BKN010,2020-08-10 11:00:00.000000,GCXO,Tenerife,1018,hPa,"{SCT003,BKN006}",300,º,16,kt,,,,,9999,9999,m,19,C,BECMG BKN010,IFR
GEML 101100Z 07005KT 350V120 CAVOK 29/22 Q1011,2020-08-10 11:00:00.000000,GEML,Melilla,1011,hPa,{No clouds},70,º,5,kt,350,º,120,º,CAVOK,9999,m,29,C,"",VFR
LEAB 101100Z 18009KT 140V240 CAVOK 32/06 Q1017 NOSIG,2020-08-10 11:00:00.000000,LEAB,Albacete,1017,hPa,{No clouds},180,º,9,kt,140,º,240,º,CAVOK,9999,m,32,C,NOSIG,VFR
LEAL 101100Z 08009KT 050V110 CAVOK 31/21 Q1013 NOSIG,2020-08-10 11:00:00.000000,LEAL,Alicante,1013,hPa,{No clouds},80,º,9,kt,50,º,110,º,CAVOK,9999,m,31,C,NOSIG,VFR
LEAM 101100Z 21007KT 170V250 CAVOK 30/24 Q1011,2020-08-10 11:00:00.000000,LEAM,Almeria,1011,hPa,{No clouds},210,º,7,kt,170,º,250,º,CAVOK,9999,m,30,C,"",VFR
LEAS 101100Z 33007KT 290V020 9999 BKN029 21/18 Q1014 NOSIG,2020-08-10 11:00:00.000000,LEAS,Aviles,1014,hPa,{BKN029},330,º,7,kt,290,º,20,º,9999,9999,m,21,C,NOSIG,MVFR
LEBA 101100Z 07008KT 020V140 CAVOK 28/18 Q1011,2020-08-10 11:00:00.000000,LEBA,Cordoba,1011,hPa,{No clouds},70,º,8,kt,20,º,140,º,CAVOK,9999,m,28,C,"",VFR
LEBB 101100Z VRB03KT 9999 SCT022 BKN033 25/19 Q1013 NOSIG,2020-08-10 11:00:00.000000,LEBB,Bilbao,1013,hPa,"{SCT022,BKN033}",,º,3,kt,,,,,9999,9999,m,25,C,NOSIG,VFR
LEBL 101100Z 20009KT CAVOK 29/23 Q1014 NOSIG,2020-08-10 11:00:00.000000,LEBL,Barcelona,1014,hPa,{No clouds},200,º,9,kt,,,,,CAVOK,9999,m,29,C,NOSIG,VFR
LEBZ 101100Z 25004KT CAVOK 26/14 Q1012,2020-08-10 11:00:00.000000,LEBZ,Badajoz,1012,hPa,{No clouds},250,º,4,kt,,,,,CAVOK,9999,m,26,C,"",VFR
LECO 101100Z 35005KT 320V040 9000 BKN020 20/18 Q1015 NOSIG,2020-08-10 11:00:00.000000,LECO,La Coruna,1015,hPa,{BKN020},350,º,5,kt,320,º,40,º,9000,9000,m,20,C,NOSIG,MVFR
LEGA 101100Z 20010KT 160V240 9999 FEW080 37/08 Q1014,2020-08-10 11:00:00.000000,LEGA,Granada,1014,hPa,{FEW080},200,º,10,kt,160,º,240,º,9999,9999,m,37,C,"",VFR
LEGE 101100Z 20005KT 140V280 CAVOK 32/15 Q1014,2020-08-10 11:00:00.000000,LEGE,Gerona,1014,hPa,{No clouds},200,º,5,kt,140,º,280,º,CAVOK,9999,m,32,C,"",VFR
LEGR 101100Z 00000KT 9999 FEW060TCU SCT100 35/05 Q1014,2020-08-10 11:00:00.000000,LEGR,Granada,1014,hPa,"{FEW060TCU,SCT100}",0,º,0,kt,,,,,9999,9999,m,35,C,"",VFR
LEGT 101100Z 16007KT 9999 VCTS FEW080CB 29/12 Q1015,2020-08-10 11:00:00.000000,LEGT,Madrid,1015,hPa,{FEW080CB},160,º,7,kt,,,,,9999,9999,m,29,C,"",VFR
LEIB 101100Z 09009KT 050V140 CAVOK 29/22 Q1013 NOSIG,2020-08-10 11:00:00.000000,LEIB,Ibiza,1013,hPa,{No clouds},90,º,9,kt,50,º,140,º,CAVOK,9999,m,29,C,NOSIG,VFR
LEJR 101100Z 23005KT 170V320 9999 FEW020 29/23 Q1011,2020-08-10 11:00:00.000000,LEJR,Jerez,1011,hPa,{FEW020},230,º,5,kt,170,º,320,º,9999,9999,m,29,C,"",VFR
LELC 101100Z 06009KT 020V110 CAVOK 30/21 Q1012 NOSIG,2020-08-10 11:00:00.000000,LELC,Murcia,1012,hPa,{No clouds},60,º,9,kt,20,º,110,º,CAVOK,9999,m,30,C,NOSIG,VFR
LEMD 101100Z 14008KT 9999 FEW060CB 29/11 Q1015 TEMPO TSRA,2020-08-10 11:00:00.000000,LEMD,Madrid,1015,hPa,{FEW060CB},140,º,8,kt,,,,,9999,9999,m,29,C,TEMPO TSRA,VFR
LEMG 101100Z 08001KT 9999 FEW040 31/19 Q1011 TEMPO TSRA FEW020CB,2020-08-10 11:00:00.000000,LEMG,Malaga,1011,hPa,{FEW040},80,º,1,kt,,,,,9999,9999,m,31,C,TEMPO TSRA FEW020CB,VFR
LEMH 101100Z 18007KT 120V230 9999 FEW025 30/22 Q1015,2020-08-10 11:00:00.000000,LEMH,Menorca,1015,hPa,{FEW025},180,º,7,kt,120,º,230,º,9999,9999,m,30,C,"",VFR
LEMO 101100Z 31001KT 9999 FEW020 SCT040 28/20 Q1012 NOSIG,2020-08-10 11:00:00.000000,LEMO,Sevilla,1012,hPa,"{FEW020,SCT040}",310,º,1,kt,,,,,9999,9999,m,28,C,NOSIG,VFR
LEPP 101100Z 04003KT 330V110 9999 FEW039 29/17 Q1013,2020-08-10 11:00:00.000000,LEPP,Pamplona,1013,hPa,{FEW039},40,º,3,kt,330,º,110,º,9999,9999,m,29,C,"",VFR
LERI 101100Z 03005KT 320V100 CAVOK 32/12 Q1012 NOSIG,2020-08-10 11:00:00.000000,LERI,Murcia,1012,hPa,{No clouds},30,º,5,kt,320,º,100,º,CAVOK,9999,m,32,C,NOSIG,VFR
LERS 101100Z 13007KT 080V170 9999 FEW025 28/22 Q1014,2020-08-10 11:00:00.000000,LERS,Reus,1014,hPa,{FEW025},130,º,7,kt,80,º,170,º,9999,9999,m,28,C,"",VFR
LERT 101100Z 22008KT 180V260 9999 FEW012 27/22 Q1011 NOSIG,2020-08-10 11:00:00.000000,LERT,Rota,1011,hPa,{FEW012},220,º,8,kt,180,º,260,º,9999,9999,m,27,C,NOSIG,VFR
LESA 101100Z 23008KT 190V290 CAVOK 32/06 Q1014,2020-08-10 11:00:00.000000,LESA,Salamanca,1014,hPa,{No clouds},230,º,8,kt,190,º,290,º,CAVOK,9999,m,32,C,"",VFR
LESB 101100Z AUTO 21010KT CAVOK 31/21 Q1015,2020-08-10 11:00:00.000000,LESB,Son Bonet,1015,hPa,{No clouds},210,º,10,kt,,,,,CAVOK,9999,m,31,C,"",VFR
LESO 101100Z 36004KT 300V070 9999 FEW014 BKN026 25/20 Q1013,2020-08-10 11:00:00.000000,LESO,San Sebastian,1013,hPa,"{FEW014,BKN026}",360,º,4,kt,300,º,70,º,9999,9999,m,25,C,"",MVFR
LEST 101100Z 04007KT 350V080 9999 FEW012 BKN015 OVC020 19/16 Q1015 NOSIG,2020-08-10 11:00:00.000000,LEST,Santiago,1015,hPa,"{FEW012,BKN015,OVC020}",40,º,7,kt,350,º,80,º,9999,9999,m,19,C,NOSIG,MVFR
LESU 101100Z 22003KT 180V250 9999 SCT060 24/14 Q1019,2020-08-10 11:00:00.000000,LESU,Seo De Urgel,1019,hPa,{SCT060},220,º,3,kt,180,º,250,º,9999,9999,m,24,C,"",VFR
LETO 101100Z 15006KT 120V180 9999 SCT069CB 29/11 Q1015 TEMPO TSRA,2020-08-10 11:00:00.000000,LETO,Madrid,1015,hPa,{SCT069CB},150,º,6,kt,120,º,180,º,9999,9999,m,29,C,TEMPO TSRA,VFR
LEVC 101100Z 11008KT 080V150 CAVOK 32/21 Q1013 NOSIG,2020-08-10 11:00:00.000000,LEVC,Valencia,1013,hPa,{No clouds},110,º,8,kt,80,º,150,º,CAVOK,9999,m,32,C,NOSIG,VFR
LEVD 101100Z 23008KT 160V280 CAVOK 31/08 Q1014,2020-08-10 11:00:00.000000,LEVD,Valladolid,1014,hPa,{No clouds},230,º,8,kt,160,º,280,º,CAVOK,9999,m,31,C,"",VFR
LEVT 101100Z VRB04KT 9999 FEW030 28/17 Q1013,2020-08-10 11:00:00.000000,LEVT,Vitoria,1013,hPa,{FEW030},,º,4,kt,,,,,9999,9999,m,28,C,"",VFR
LEVX 101100Z VRB03KT 9999 SCT026 26/17 Q1013 NOSIG,2020-08-10 11:00:00.000000,LEVX,Vigo,1013,hPa,{SCT026},,º,3,kt,,,,,9999,9999,m,26,C,NOSIG,VFR
LEXJ 101100Z 35003KT 280V040 9999 BKN031 24/19 Q1013,2020-08-10 11:00:00.000000,LEXJ,Santander,1013,hPa,{BKN031},350,º,3,kt,280,º,40,º,9999,9999,m,24,C,"",VFR
LEZG 101100Z 08008KT 050V150 9999 FEW085 31/16 Q1013,2020-08-10 11:00:00.000000,LEZG,Zaragoza,1013,hPa,{FEW085},80,º,8,kt,50,º,150,º,9999,9999,m,31,C,"",VFR
LEZL 101100Z 23003KT CAVOK 30/19 Q1011 NOSIG,2020-08-10 11:00:00.000000,LEZL,Sevilla,1011,hPa,{No clouds},230,º,3,kt,,,,,CAVOK,9999,m,30,C,NOSIG,VFR
LEPA 101100Z 23008KT 200V260 CAVOK 31/22 Q1014 NOSIG,2020-08-10 11:00:00.000000,LEPA,Palma de Mallorca,1014,hPa,{No clouds},230,º,8,kt,200,º,260,º,CAVOK,9999,m,31,C,NOSIG,VFR
GCGM 101100Z 23009KT 210V270 9999 FEW015 24/19 Q1016 RMK R09/24006KT 180V280 ARP/24008KT 190V280,2020-08-10 11:00:00.000000,GCGM,La Gomera,1016,hPa,{FEW015},230,º,9,kt,210,º,270,º,9999,9999,m,24,C,RMK R09/24006KT 180V280 ARP/24008KT 190V280,VFR
LELO 101100Z 08007KT 050V120 CAVOK 29/16 Q1012,2020-08-10 11:00:00.000000,LELO,Logroño-Agoncillo,1012,hPa,{No clouds},80,º,7,kt,50,º,120,º,CAVOK,9999,m,29,C,"",VFR
LELN 101100Z 15005KT 040V210 9999 FEW040 27/11 Q1014,2020-08-10 11:00:00.000000,LELN,Leon,1014,hPa,{FEW040},150,º,5,kt,40,º,210,º,9999,9999,m,27,C,"",VFR
LEBG 101100Z 21013G26KT 160V250 CAVOK 30/08 Q1014,2020-08-10 11:00:00.000000,LEBG,Burgos,1014,hPa,{No clouds},210,º,13,kt,160,º,250,º,CAVOK,9999,m,30,C,"",VFR
LELL 101100Z 19005KT 120V240 CAVOK 35/11 Q1014,2020-08-10 11:00:00.000000,LELL,Sabadell,1014,hPa,{No clouds},190,º,5,kt,120,º,240,º,CAVOK,9999,m,35,C,"",VFR
LEDA 101100Z AUTO 08010KT 040V110 CAVOK 31/12 Q1014,2020-08-10 11:00:00.000000,LEDA,Lleida,1014,hPa,{No clouds},80,º,10,kt,40,º,110,º,CAVOK,9999,m,31,C,"",VFR
LEHC 101100Z 12013KT 080V170 CAVOK 31/11 Q1015,2020-08-10 11:00:00.000000,LEHC,Huesca,1015,hPa,{No clouds},120,º,13,kt,80,º,170,º,CAVOK,9999,m,31,C,"",VFR
LERL 101100Z 21003KT 9999 VCTS FEW049CB 23/17 Q1015,2020-08-10 11:00:00.000000,LERL,Ciudad Real,1015,hPa,{FEW049CB},210,º,3,kt,,,,,9999,9999,m,23,C,"",VFR
LETL 101100Z AUTO 20011KT 180V240 CAVOK 30/06 Q1018,2020-08-10 11:00:00.000000,LETL,Teruel,1018,hPa,{No clouds},200,º,11,kt,180,º,240,º,CAVOK,9999,m,30,C,"",VFR
LEAG 101100Z AUTO 07005KT 360V120 CAVOK 26/21 Q1012,2020-08-10 11:00:00.000000,LEAG,Algeciras,1012,hPa,{No clouds},70,º,5,kt,360,º,120,º,CAVOK,9999,m,26,C,"",VFR
LEMI 101100Z 08007KT 010V140 CAVOK 33/12 Q1013,2020-08-10 11:00:00.000000,LEMI,Murcia,1013,hPa,{No clouds},80,º,7,kt,10,º,140,º,CAVOK,9999,m,33,C,"",VFR
LEJR 101130Z VRB04KT 9999 FEW024 30/23 Q1011,2020-08-10 11:30:00.000000,LEJR,Jerez,1011,hPa,{FEW024},,º,4,kt,,,,,9999,9999,m,30,C,"",VFR
LEMO 101130Z VRB02KT 9999 FEW040 29/20 Q1011 NOSIG,2020-08-10 11:30:00.000000,LEMO,Sevilla,1011,hPa,{FEW040},,º,2,kt,,,,,9999,9999,m,29,C,NOSIG,VFR
GCFV 101130Z 05015KT 9999 FEW025 26/19 Q1014,2020-08-10 11:30:00.000000,GCFV,Fuerteventura,1014,hPa,{FEW025},50,º,15,kt,,,,,9999,9999,m,26,C,"",VFR
GCHI 101130Z 35013KT 9999 DZ FEW016 SCT022 24/20 Q1016,2020-08-10 11:30:00.000000,GCHI,Hierro,1016,hPa,"{FEW016,SCT022}",350,º,13,kt,,,,,9999,9999,m,24,C,"",VFR
GCLA 101130Z 02014KT 340V040 9999 FEW025 SCT030 26/20 Q1017,2020-08-10 11:30:00.000000,GCLA,Santa Cruz De La Palma,1017,hPa,"{FEW025,SCT030}",20,º,14,kt,340,º,40,º,9999,9999,m,26,C,"",VFR
GCLP 101130Z 01026KT 9999 BKN025 26/19 Q1015 NOSIG,2020-08-10 11:30:00.000000,GCLP,Gran Canaria,1015,hPa,{BKN025},10,º,26,kt,,,,,9999,9999,m,26,C,NOSIG,MVFR
GCRR 101130Z 36017KT 9999 FEW026 27/18 Q1014,2020-08-10 11:30:00.000000,GCRR,Arrecife,1014,hPa,{FEW026},360,º,17,kt,,,,,9999,9999,m,27,C,"",VFR
GCTS 101130Z 08022KT 9999 FEW030 28/19 Q1015 NOSIG,2020-08-10 11:30:00.000000,GCTS,Tenerife,1015,hPa,{FEW030},80,º,22,kt,,,,,9999,9999,m,28,C,NOSIG,VFR
GCXO 101130Z 30016KT 0500 0300NW R30/1900N R12/0450N FG DZ SCT001 BKN003 19/18 Q1018 BECMG BKN010,2020-08-10 11:30:00.000000,GCXO,Tenerife,1018,hPa,"{SCT001,BKN003}",300,º,16,kt,,,,,0500,500,m,19,C,BECMG BKN010,LIFR
GEML 101130Z 06007KT 020V090 CAVOK 28/22 Q1011,2020-08-10 11:30:00.000000,GEML,Melilla,1011,hPa,{No clouds},60,º,7,kt,20,º,90,º,CAVOK,9999,m,28,C,"",VFR
LEAB 101130Z VRB04KT CAVOK 33/07 Q1017 NOSIG,2020-08-10 11:30:00.000000,LEAB,Albacete,1017,hPa,{No clouds},,º,4,kt,,,,,CAVOK,9999,m,33,C,NOSIG,VFR
LEAL 101130Z 07008KT CAVOK 30/22 Q1013 NOSIG,2020-08-10 11:30:00.000000,LEAL,Alicante,1013,hPa,{No clouds},70,º,8,kt,,,,,CAVOK,9999,m,30,C,NOSIG,VFR
LEAM 101130Z 21007KT CAVOK 29/23 Q1010,2020-08-10 11:30:00.000000,LEAM,Almeria,1010,hPa,{No clouds},210,º,7,kt,,,,,CAVOK,9999,m,29,C,"",VFR
LEAS 101130Z 31009KT 280V010 9999 BKN031 21/18 Q1014 NOSIG,2020-08-10 11:30:00.000000,LEAS,Aviles,1014,hPa,{BKN031},310,º,9,kt,280,º,10,º,9999,9999,m,21,C,NOSIG,VFR
LEBA 101130Z 08005KT 030V170 CAVOK 29/18 Q1011,2020-08-10 11:30:00.000000,LEBA,Cordoba,1011,hPa,{No clouds},80,º,5,kt,30,º,170,º,CAVOK,9999,m,29,C,"",VFR
LEBB 101130Z 04004KT 340V130 9999 BKN025 26/19 Q1013 NOSIG,2020-08-10 11:30:00.000000,LEBB,Bilbao,1013,hPa,{BKN025},40,º,4,kt,340,º,130,º,9999,9999,m,26,C,NOSIG,MVFR
LEBL 101130Z 20012KT CAVOK 29/22 Q1014 NOSIG,2020-08-10 11:30:00.000000,LEBL,Barcelona,1014,hPa,{No clouds},200,º,12,kt,,,,,CAVOK,9999,m,29,C,NOSIG,VFR
LEBZ 101130Z 28005KT CAVOK 28/14 Q1012,2020-08-10 11:30:00.000000,LEBZ,Badajoz,1012,hPa,{No clouds},280,º,5,kt,,,,,CAVOK,9999,m,28,C,"",VFR
LECO 101130Z 36005KT 300V060 9999 SCT028 BKN034 21/18 Q1014 NOSIG,2020-08-10 11:30:00.000000,LECO,La Coruna,1014,hPa,"{SCT028,BKN034}",360,º,5,kt,300,º,60,º,9999,9999,m,21,C,NOSIG,VFR
LEGA 101130Z 18010KT 150V210 9999 FEW080 35/07 Q1014,2020-08-10 11:30:00.000000,LEGA,Granada,1014,hPa,{FEW080},180,º,10,kt,150,º,210,º,9999,9999,m,35,C,"",VFR
LEGE 101130Z 18010KT 140V220 CAVOK 33/18 Q1013,2020-08-10 11:30:00.000000,LEGE,Gerona,1013,hPa,{No clouds},180,º,10,kt,140,º,220,º,CAVOK,9999,m,33,C,"",VFR
LEGR 101130Z 27009KT 240V300 9999 FEW060 SCT100 34/08 Q1014,2020-08-10 11:30:00.000000,LEGR,Granada,1014,hPa,"{FEW060,SCT100}",270,º,9,kt,240,º,300,º,9999,9999,m,34,C,"",VFR
LEGT 101130Z 16008KT 9999 VCSH FEW080CB 29/12 Q1015,2020-08-10 11:30:00.000000,LEGT,Madrid,1015,hPa,{FEW080CB},160,º,8,kt,,,,,9999,9999,m,29,C,"",VFR
LEIB 101130Z 09010KT 050V110 CAVOK 29/23 Q1013 NOSIG,2020-08-10 11:30:00.000000,LEIB,Ibiza,1013,hPa,{No clouds},90,º,10,kt,50,º,110,º,CAVOK,9999,m,29,C,NOSIG,VFR
LEJR 101200Z 20006KT 150V300 9999 FEW030 31/23 Q1011,2020-08-10 12:00:00.000000,LEJR,Jerez,1011,hPa,{FEW030},200,º,6,kt,150,º,300,º,9999,9999,m,31,C,"",VFR
LELC 101130Z 06011KT 030V110 CAVOK 30/22 Q1012 NOSIG,2020-08-10 11:30:00.000000,LELC,Murcia,1012,hPa,{No clouds},60,º,11,kt,30,º,110,º,CAVOK,9999,m,30,C,NOSIG,VFR
LEMD 101130Z 15007KT 110V170 9999 FEW070CB 29/11 Q1016 TEMPO TSRA,2020-08-10 11:30:00.000000,LEMD,Madrid,1016,hPa,{FEW070CB},150,º,7,kt,110,º,170,º,9999,9999,m,29,C,TEMPO TSRA,VFR
LEMG 101130Z 14010KT 9999 FEW030 29/21 Q1011 TEMPO TSRA FEW020CB,2020-08-10 11:30:00.000000,LEMG,Malaga,1011,hPa,{FEW030},140,º,10,kt,,,,,9999,9999,m,29,C,TEMPO TSRA FEW020CB,VFR
LEMH 101130Z 18008KT 130V220 9999 FEW025 30/21 Q1015,2020-08-10 11:30:00.000000,LEMH,Menorca,1015,hPa,{FEW025},180,º,8,kt,130,º,220,º,9999,9999,m,30,C,"",VFR
LEMO 101200Z 27002KT CAVOK 30/20 Q1011 NOSIG,2020-08-10 12:00:00.000000,LEMO,Sevilla,1011,hPa,{No clouds},270,º,2,kt,,,,,CAVOK,9999,m,30,C,NOSIG,VFR
LEPP 101130Z 05004KT 340V100 9999 FEW039 31/15 Q1013,2020-08-10 11:30:00.000000,LEPP,Pamplona,1013,hPa,{FEW039},50,º,4,kt,340,º,100,º,9999,9999,m,31,C,"",VFR
LERI 101130Z 06006KT 360V110 CAVOK 34/13 Q1012 NOSIG,2020-08-10 11:30:00.000000,LERI,Murcia,1012,hPa,{No clouds},60,º,6,kt,360,º,110,º,CAVOK,9999,m,34,C,NOSIG,VFR
LERS 101130Z 12006KT 070V170 9999 FEW025 27/23 Q1014,2020-08-10 11:30:00.000000,LERS,Reus,1014,hPa,{FEW025},120,º,6,kt,70,º,170,º,9999,9999,m,27,C,"",VFR
LERT 101130Z 21008KT 170V250 9999 FEW012 27/22 Q1011 NOSIG,2020-08-10 11:30:00.000000,LERT,Rota,1011,hPa,{FEW012},210,º,8,kt,170,º,250,º,9999,9999,m,27,C,NOSIG,VFR
LESA 101130Z 24010KT 190V280 CAVOK 32/05 Q1013,2020-08-10 11:30:00.000000,LESA,Salamanca,1013,hPa,{No clouds},240,º,10,kt,190,º,280,º,CAVOK,9999,m,32,C,"",VFR
LESB 101130Z AUTO 22013KT CAVOK 31/21 Q1015,2020-08-10 11:30:00.000000,LESB,Son Bonet,1015,hPa,{No clouds},220,º,13,kt,,,,,CAVOK,9999,m,31,C,"",VFR
LESO 101130Z 35004KT 300V050 9999 FEW013 SCT020 OVC034 25/21 Q1013,2020-08-10 11:30:00.000000,LESO,San Sebastian,1013,hPa,"{FEW013,SCT020,OVC034}",350,º,4,kt,300,º,50,º,9999,9999,m,25,C,"",VFR
LEST 101130Z 05005KT 360V100 9999 FEW013 OVC017 19/16 Q1015 NOSIG,2020-08-10 11:30:00.000000,LEST,Santiago,1015,hPa,"{FEW013,OVC017}",50,º,5,kt,360,º,100,º,9999,9999,m,19,C,NOSIG,MVFR
LESU 101130Z 25004KT 210V310 9999 BKN063 24/15 Q1019,2020-08-10 11:30:00.000000,LESU,Seo De Urgel,1019,hPa,{BKN063},250,º,4,kt,210,º,310,º,9999,9999,m,24,C,"",VFR
LETO 101130Z 16008KT 130V190 9999 VCTS SCT069CB 29/11 Q1016 TEMPO TSRA,2020-08-10 11:30:00.000000,LETO,Madrid,1016,hPa,{SCT069CB},160,º,8,kt,130,º,190,º,9999,9999,m,29,C,TEMPO TSRA,VFR
LEVC 101130Z 11006KT 070V150 9999 FEW045 32/21 Q1013 NOSIG,2020-08-10 11:30:00.000000,LEVC,Valencia,1013,hPa,{FEW045},110,º,6,kt,70,º,150,º,9999,9999,m,32,C,NOSIG,VFR
LEVD 101130Z 21012KT 190V250 CAVOK 31/08 Q1014,2020-08-10 11:30:00.000000,LEVD,Valladolid,1014,hPa,{No clouds},210,º,12,kt,190,º,250,º,CAVOK,9999,m,31,C,"",VFR
LEVT 101130Z 05005KT 320V120 9999 FEW035 29/18 Q1013,2020-08-10 11:30:00.000000,LEVT,Vitoria,1013,hPa,{FEW035},50,º,5,kt,320,º,120,º,9999,9999,m,29,C,"",VFR
LEVX 101130Z VRB02KT 9999 FEW025 26/17 Q1013 NOSIG,2020-08-10 11:30:00.000000,LEVX,Vigo,1013,hPa,{FEW025},,º,2,kt,,,,,9999,9999,m,26,C,NOSIG,VFR
LEXJ 101130Z 36005KT 320V070 9999 BKN030 24/18 Q1013,2020-08-10 11:30:00.000000,LEXJ,Santander,1013,hPa,{BKN030},360,º,5,kt,320,º,70,º,9999,9999,m,24,C,"",MVFR
LEZG 101130Z 07007KT 030V100 9999 FEW085TCU 31/15 Q1012,2020-08-10 11:30:00.000000,LEZG,Zaragoza,1012,hPa,{FEW085TCU},70,º,7,kt,30,º,100,º,9999,9999,m,31,C,"",VFR
LEZL 101130Z 22004KT CAVOK 30/18 Q1011 NOSIG,2020-08-10 11:30:00.000000,LEZL,Sevilla,1011,hPa,{No clouds},220,º,4,kt,,,,,CAVOK,9999,m,30,C,NOSIG,VFR
LEPA 101130Z 26012KT CAVOK 31/23 Q1014 NOSIG,2020-08-10 11:30:00.000000,LEPA,Palma de Mallorca,1014,hPa,{No clouds},260,º,12,kt,,,,,CAVOK,9999,m,31,C,NOSIG,VFR
GCGM 101130Z 22007KT 190V260 9999 FEW015 24/19 Q1016 RMK R09/VRB05KT ARP/VRB06KT,2020-08-10 11:30:00.000000,GCGM,La Gomera,1016,hPa,{FEW015},220,º,7,kt,190,º,260,º,9999,9999,m,24,C,RMK R09/VRB05KT ARP/VRB06KT,VFR
LELO 101130Z 08007KT 020V120 CAVOK 30/15 Q1012,2020-08-10 11:30:00.000000,LELO,Logroño-Agoncillo,1012,hPa,{No clouds},80,º,7,kt,20,º,120,º,CAVOK,9999,m,30,C,"",VFR
LELN 101130Z 17005KT 9999 FEW040 29/09 Q1014,2020-08-10 11:30:00.000000,LELN,Leon,1014,hPa,{FEW040},170,º,5,kt,,,,,9999,9999,m,29,C,"",VFR
LEBG 101130Z 20017KT 150V240 9999 FEW055 31/08 Q1014,2020-08-10 11:30:00.000000,LEBG,Burgos,1014,hPa,{FEW055},200,º,17,kt,150,º,240,º,9999,9999,m,31,C,"",VFR
LELL 101130Z 19004KT CAVOK 36/13 Q1014,2020-08-10 11:30:00.000000,LELL,Sabadell,1014,hPa,{No clouds},190,º,4,kt,,,,,CAVOK,9999,m,36,C,"",VFR
LEDA 101130Z AUTO 10007KT 050V130 CAVOK 32/11 Q1014,2020-08-10 11:30:00.000000,LEDA,Lleida,1014,hPa,{No clouds},100,º,7,kt,50,º,130,º,CAVOK,9999,m,32,C,"",VFR
LEHC 101130Z 10013KT 070V150 CAVOK 32/11 Q1015,2020-08-10 11:30:00.000000,LEHC,Huesca,1015,hPa,{No clouds},100,º,13,kt,70,º,150,º,CAVOK,9999,m,32,C,"",VFR
LERL 101130Z 28004KT 230V330 9999 VCTS FEW049CB 24/18 Q1015,2020-08-10 11:30:00.000000,LERL,Ciudad Real,1015,hPa,{FEW049CB},280,º,4,kt,230,º,330,º,9999,9999,m,24,C,"",VFR
LETL 101130Z AUTO 26008KT 200V300 CAVOK 30/06 Q1018,2020-08-10 11:30:00.000000,LETL,Teruel,1018,hPa,{No clouds},260,º,8,kt,200,º,300,º,CAVOK,9999,m,30,C,"",VFR
LEAG 101130Z AUTO VRB07KT CAVOK 26/22 Q1012,2020-08-10 11:30:00.000000,LEAG,Algeciras,1012,hPa,{No clouds},,º,7,kt,,,,,CAVOK,9999,m,26,C,"",VFR
LEMI 101130Z 10008G21KT 060V150 CAVOK 35/12 Q1013,2020-08-10 11:30:00.000000,LEMI,Murcia,1013,hPa,{No clouds},100,º,8,kt,60,º,150,º,CAVOK,9999,m,35,C,"",VFR
GCFV 101200Z 05016KT 9999 FEW025 26/20 Q1014,2020-08-10 12:00:00.000000,GCFV,Fuerteventura,1014,hPa,{FEW025},50,º,16,kt,,,,,9999,9999,m,26,C,"",VFR
GCHI 101200Z 35016KT 320V020 9999 DZ FEW016 SCT020 BKN028 26/20 Q1016,2020-08-10 12:00:00.000000,GCHI,Hierro,1016,hPa,"{FEW016,SCT020,BKN028}",350,º,16,kt,320,º,20,º,9999,9999,m,26,C,"",MVFR
GCLA 101200Z 02015KT 9999 SCT030 26/19 Q1017,2020-08-10 12:00:00.000000,GCLA,Santa Cruz De La Palma,1017,hPa,{SCT030},20,º,15,kt,,,,,9999,9999,m,26,C,"",VFR
GCLP 101200Z 02027G37KT 350V050 9999 SCT025 27/18 Q1015 NOSIG,2020-08-10 12:00:00.000000,GCLP,Gran Canaria,1015,hPa,{SCT025},20,º,27,kt,350,º,50,º,9999,9999,m,27,C,NOSIG,VFR
GCRR 101200Z 36018KT 300V030 9999 FEW026 27/18 Q1014,2020-08-10 12:00:00.000000,GCRR,Arrecife,1014,hPa,{FEW026},360,º,18,kt,300,º,30,º,9999,9999,m,27,C,"",VFR
GCTS 101200Z 09022KT 9999 FEW030 28/18 Q1015 NOSIG,2020-08-10 12:00:00.000000,GCTS,Tenerife,1015,hPa,{FEW030},90,º,22,kt,,,,,9999,9999,m,28,C,NOSIG,VFR
GCXO 101200Z 31017KT 9999 2000NW R30/P2000 R12/1400U BCFG DZ SCT002 BKN003 19/19 Q1018 BECMG BKN010,2020-08-10 12:00:00.000000,GCXO,Tenerife,1018,hPa,"{SCT002,BKN003}",310,º,17,kt,,,,,9999,9999,m,19,C,BECMG BKN010,LIFR
GEML 101200Z 05008KT 010V100 CAVOK 27/22 Q1010,2020-08-10 12:00:00.000000,GEML,Melilla,1010,hPa,{No clouds},50,º,8,kt,10,º,100,º,CAVOK,9999,m,27,C,"",VFR
LEAB 101200Z 32006KT 280V010 CAVOK 32/08 Q1017 NOSIG,2020-08-10 12:00:00.000000,LEAB,Albacete,1017,hPa,{No clouds},320,º,6,kt,280,º,10,º,CAVOK,9999,m,32,C,NOSIG,VFR
LEAL 101200Z 08009KT 050V110 CAVOK 30/22 Q1013 NOSIG,2020-08-10 12:00:00.000000,LEAL,Alicante,1013,hPa,{No clouds},80,º,9,kt,50,º,110,º,CAVOK,9999,m,30,C,NOSIG,VFR
LEAM 101200Z 22006KT 190V260 CAVOK 31/19 Q1010,2020-08-10 12:00:00.000000,LEAM,Almeria,1010,hPa,{No clouds},220,º,6,kt,190,º,260,º,CAVOK,9999,m,31,C,"",VFR
LEAS 101200Z 34008KT 290V010 9999 FEW024 BKN031 21/19 Q1014 NOSIG,2020-08-10 12:00:00.000000,LEAS,Aviles,1014,hPa,"{FEW024,BKN031}",340,º,8,kt,290,º,10,º,9999,9999,m,21,C,NOSIG,VFR
LEBA 101200Z 07005KT 030V140 CAVOK 31/18 Q1011,2020-08-10 12:00:00.000000,LEBA,Cordoba,1011,hPa,{No clouds},70,º,5,kt,30,º,140,º,CAVOK,9999,m,31,C,"",VFR
LEBB 101200Z 03005KT 340V080 9999 BKN024 26/20 Q1013 NOSIG,2020-08-10 12:00:00.000000,LEBB,Bilbao,1013,hPa,{BKN024},30,º,5,kt,340,º,80,º,9999,9999,m,26,C,NOSIG,MVFR
LEBL 101200Z 19013KT CAVOK 29/22 Q1014 NOSIG,2020-08-10 12:00:00.000000,LEBL,Barcelona,1014,hPa,{No clouds},190,º,13,kt,,,,,CAVOK,9999,m,29,C,NOSIG,VFR
LEBZ 101200Z 36004KT CAVOK 29/14 Q1011,2020-08-10 12:00:00.000000,LEBZ,Badajoz,1011,hPa,{No clouds},360,º,4,kt,,,,,CAVOK,9999,m,29,C,"",VFR
LECO 101200Z 01006KT 330V080 9999 SCT028 BKN032 21/17 Q1014 NOSIG,2020-08-10 12:00:00.000000,LECO,La Coruna,1014,hPa,"{SCT028,BKN032}",10,º,6,kt,330,º,80,º,9999,9999,m,21,C,NOSIG,VFR
LEGA 101200Z 28013KT 250V310 9999 SCT080 34/06 Q1014,2020-08-10 12:00:00.000000,LEGA,Granada,1014,hPa,{SCT080},280,º,13,kt,250,º,310,º,9999,9999,m,34,C,"",VFR
LEGE 101200Z 18011KT 150V220 CAVOK 32/20 Q1014,2020-08-10 12:00:00.000000,LEGE,Gerona,1014,hPa,{No clouds},180,º,11,kt,150,º,220,º,CAVOK,9999,m,32,C,"",VFR
LEGR 101200Z 26010KT 230V300 9999 FEW060 BKN090 34/07 Q1014,2020-08-10 12:00:00.000000,LEGR,Granada,1014,hPa,"{FEW060,BKN090}",260,º,10,kt,230,º,300,º,9999,9999,m,34,C,"",VFR
LEGT 101200Z 17008KT 9999 -SHRA FEW024 SCT040 BKN055CB 26/18 Q1016,2020-08-10 12:00:00.000000,LEGT,Madrid,1016,hPa,"{FEW024,SCT040,BKN055CB}",170,º,8,kt,,,,,9999,9999,m,26,C,"",VFR
LEIB 101200Z 09010KT 060V120 CAVOK 30/23 Q1013 NOSIG,2020-08-10 12:00:00.000000,LEIB,Ibiza,1013,hPa,{No clouds},90,º,10,kt,60,º,120,º,CAVOK,9999,m,30,C,NOSIG,VFR
LELC 101200Z 06010KT 020V110 CAVOK 30/22 Q1012 NOSIG,2020-08-10 12:00:00.000000,LELC,Murcia,1012,hPa,{No clouds},60,º,10,kt,20,º,110,º,CAVOK,9999,m,30,C,NOSIG,VFR
LEMD 101200Z 13005KT 080V160 9999 FEW070CB SCT080 30/11 Q1015 RESHRA NOSIG,2020-08-10 12:00:00.000000,LEMD,Madrid,1015,hPa,"{FEW070CB,SCT080}",130,º,5,kt,80,º,160,º,9999,9999,m,30,C,RESHRA NOSIG,VFR
LEMG 101200Z 15008KT 110V200 9999 FEW030 30/19 Q1011 TEMPO TSRA FEW020CB,2020-08-10 12:00:00.000000,LEMG,Malaga,1011,hPa,{FEW030},150,º,8,kt,110,º,200,º,9999,9999,m,30,C,TEMPO TSRA FEW020CB,VFR
LEMH 101200Z 16008KT 130V230 9999 FEW025 29/21 Q1015,2020-08-10 12:00:00.000000,LEMH,Menorca,1015,hPa,{FEW025},160,º,8,kt,130,º,230,º,9999,9999,m,29,C,"",VFR
LEPP 101200Z 03003KT 9999 FEW039 32/13 Q1013,2020-08-10 12:00:00.000000,LEPP,Pamplona,1013,hPa,{FEW039},30,º,3,kt,,,,,9999,9999,m,32,C,"",VFR
LERI 101200Z 04006KT 360V140 CAVOK 35/12 Q1012 NOSIG,2020-08-10 12:00:00.000000,LERI,Murcia,1012,hPa,{No clouds},40,º,6,kt,360,º,140,º,CAVOK,9999,m,35,C,NOSIG,VFR
LERS 101200Z 14004KT 080V170 9999 FEW020 28/23 Q1014,2020-08-10 12:00:00.000000,LERS,Reus,1014,hPa,{FEW020},140,º,4,kt,80,º,170,º,9999,9999,m,28,C,"",VFR
LERT 101200Z 21008KT 150V240 9999 FEW012 27/22 Q1011 NOSIG,2020-08-10 12:00:00.000000,LERT,Rota,1011,hPa,{FEW012},210,º,8,kt,150,º,240,º,9999,9999,m,27,C,NOSIG,VFR
LESA 101200Z 25009KT 200V290 CAVOK 33/06 Q1013,2020-08-10 12:00:00.000000,LESA,Salamanca,1013,hPa,{No clouds},250,º,9,kt,200,º,290,º,CAVOK,9999,m,33,C,"",VFR
LESB 101200Z AUTO 22013KT CAVOK 31/21 Q1015,2020-08-10 12:00:00.000000,LESB,Son Bonet,1015,hPa,{No clouds},220,º,13,kt,,,,,CAVOK,9999,m,31,C,"",VFR
LESO 101200Z 36004KT 300V060 9999 SCT015 OVC029 24/21 Q1013,2020-08-10 12:00:00.000000,LESO,San Sebastian,1013,hPa,"{SCT015,OVC029}",360,º,4,kt,300,º,60,º,9999,9999,m,24,C,"",MVFR
LEST 101200Z 03007KT 350V070 9999 BKN015 OVC021 19/15 Q1015 NOSIG,2020-08-10 12:00:00.000000,LEST,Santiago,1015,hPa,"{BKN015,OVC021}",30,º,7,kt,350,º,70,º,9999,9999,m,19,C,NOSIG,MVFR
LESU 101200Z 24004KT 9999 -SHRA VCTS SCT060CB BKN065 23/15 Q1019,2020-08-10 12:00:00.000000,LESU,Seo De Urgel,1019,hPa,"{SCT060CB,BKN065}",240,º,4,kt,,,,,9999,9999,m,23,C,"",VFR
LETO 101200Z 18004KT 140V210 9999 SCT069CB 29/11 Q1015 NOSIG,2020-08-10 12:00:00.000000,LETO,Madrid,1015,hPa,{SCT069CB},180,º,4,kt,140,º,210,º,9999,9999,m,29,C,NOSIG,VFR
LEVC 101200Z 09006KT 050V170 9999 FEW045 32/21 Q1013 NOSIG,2020-08-10 12:00:00.000000,LEVC,Valencia,1013,hPa,{FEW045},90,º,6,kt,50,º,170,º,9999,9999,m,32,C,NOSIG,VFR
LEVD 101200Z 25010KT 200V280 CAVOK 32/08 Q1014,2020-08-10 12:00:00.000000,LEVD,Valladolid,1014,hPa,{No clouds},250,º,10,kt,200,º,280,º,CAVOK,9999,m,32,C,"",VFR
LEVT 101200Z 03006KT 350V090 9999 FEW035TCU 29/17 Q1013,2020-08-10 12:00:00.000000,LEVT,Vitoria,1013,hPa,{FEW035TCU},30,º,6,kt,350,º,90,º,9999,9999,m,29,C,"",VFR
LEVX 101200Z VRB04KT CAVOK 27/16 Q1013 NOSIG,2020-08-10 12:00:00.000000,LEVX,Vigo,1013,hPa,{No clouds},,º,4,kt,,,,,CAVOK,9999,m,27,C,NOSIG,VFR
LEXJ 101200Z 36005KT 310V050 9999 BKN030 24/18 Q1013,2020-08-10 12:00:00.000000,LEXJ,Santander,1013,hPa,{BKN030},360,º,5,kt,310,º,50,º,9999,9999,m,24,C,"",MVFR
LEZG 101200Z 10007KT 070V140 9999 -RA FEW060CB 29/18 Q1013,2020-08-10 12:00:00.000000,LEZG,Zaragoza,1013,hPa,{FEW060CB},100,º,7,kt,70,º,140,º,9999,9999,m,29,C,"",VFR
LEZL 101200Z 14002KT CAVOK 31/19 Q1011 NOSIG,2020-08-10 12:00:00.000000,LEZL,Sevilla,1011,hPa,{No clouds},140,º,2,kt,,,,,CAVOK,9999,m,31,C,NOSIG,VFR
LEPA 101200Z 27011KT 250V310 CAVOK 32/24 Q1014 NOSIG,2020-08-10 12:00:00.000000,LEPA,Palma de Mallorca,1014,hPa,{No clouds},270,º,11,kt,250,º,310,º,CAVOK,9999,m,32,C,NOSIG,VFR
GCGM 101200Z 23008KT 190V260 9999 FEW015 24/20 Q1016 RMK R09/25006KT 180V280 ARP/24007KT 180V290,2020-08-10 12:00:00.000000,GCGM,La Gomera,1016,hPa,{FEW015},230,º,8,kt,190,º,260,º,9999,9999,m,24,C,RMK R09/25006KT 180V280 ARP/24007KT 180V290,VFR
LELO 101200Z 09009KT 060V120 CAVOK 30/15 Q1012,2020-08-10 12:00:00.000000,LELO,Logroño-Agoncillo,1012,hPa,{No clouds},90,º,9,kt,60,º,120,º,CAVOK,9999,m,30,C,"",VFR
LELN 101200Z 15005KT 9999 FEW040 29/10 Q1014,2020-08-10 12:00:00.000000,LELN,Leon,1014,hPa,{FEW040},150,º,5,kt,,,,,9999,9999,m,29,C,"",VFR
LEBG 101200Z 20017KT 180V240 9999 FEW055TCU 32/09 Q1014,2020-08-10 12:00:00.000000,LEBG,Burgos,1014,hPa,{FEW055TCU},200,º,17,kt,180,º,240,º,9999,9999,m,32,C,"",VFR
LELL 101200Z 19006KT 150V280 CAVOK 35/14 Q1014,2020-08-10 12:00:00.000000,LELL,Sabadell,1014,hPa,{No clouds},190,º,6,kt,150,º,280,º,CAVOK,9999,m,35,C,"",VFR
LEDA 101200Z AUTO 15008KT CAVOK 30/13 Q1015,2020-08-10 12:00:00.000000,LEDA,Lleida,1015,hPa,{No clouds},150,º,8,kt,,,,,CAVOK,9999,m,30,C,"",VFR
LEHC 101200Z 14013KT 9999 FEW050CB 31/12 Q1015,2020-08-10 12:00:00.000000,LEHC,Huesca,1015,hPa,{FEW050CB},140,º,13,kt,,,,,9999,9999,m,31,C,"",VFR
LERL 101200Z 10004KT 070V170 9999 FEW049 25/18 Q1016,2020-08-10 12:00:00.000000,LERL,Ciudad Real,1016,hPa,{FEW049},100,º,4,kt,70,º,170,º,9999,9999,m,25,C,"",VFR
LETL 101200Z AUTO 14009KT 090V170 CAVOK 31/06 Q1018,2020-08-10 12:00:00.000000,LETL,Teruel,1018,hPa,{No clouds},140,º,9,kt,90,º,170,º,CAVOK,9999,m,31,C,"",VFR
LEAG 101200Z AUTO 13007KT 080V170 CAVOK 26/22 Q1012,2020-08-10 12:00:00.000000,LEAG,Algeciras,1012,hPa,{No clouds},130,º,7,kt,80,º,170,º,CAVOK,9999,m,26,C,"",VFR
LEMI 101200Z 11010KT 080V140 CAVOK 34/12 Q1013,2020-08-10 12:00:00.000000,LEMI,Murcia,1013,hPa,{No clouds},110,º,10,kt,80,º,140,º,CAVOK,9999,m,34,C,"",VFR
GCFV 101230Z 05017KT 9999 FEW025 26/19 Q1014,2020-08-10 12:30:00.000000,GCFV,Fuerteventura,1014,hPa,{FEW025},50,º,17,kt,,,,,9999,9999,m,26,C,"",VFR
GCHI 101230Z 35019KT 9999 FEW016 SCT026 25/19 Q1016,2020-08-10 12:30:00.000000,GCHI,Hierro,1016,hPa,"{FEW016,SCT026}",350,º,19,kt,,,,,9999,9999,m,25,C,"",VFR
GCLA 101230Z 01013KT 9999 FEW030 27/20 Q1017,2020-08-10 12:30:00.000000,GCLA,Santa Cruz De La Palma,1017,hPa,{FEW030},10,º,13,kt,,,,,9999,9999,m,27,C,"",VFR
GCLP 101230Z 02026KT 9999 SCT025 27/18 Q1014 NOSIG,2020-08-10 12:30:00.000000,GCLP,Gran Canaria,1014,hPa,{SCT025},20,º,26,kt,,,,,9999,9999,m,27,C,NOSIG,VFR
GCRR 101230Z 36017G30KT 320V030 9999 FEW026 28/18 Q1014,2020-08-10 12:30:00.000000,GCRR,Arrecife,1014,hPa,{FEW026},360,º,17,kt,320,º,30,º,9999,9999,m,28,C,"",VFR
GCTS 101230Z 08022KT 9999 FEW030 28/19 Q1015 NOSIG,2020-08-10 12:30:00.000000,GCTS,Tenerife,1015,hPa,{FEW030},80,º,22,kt,,,,,9999,9999,m,28,C,NOSIG,VFR
GCXO 101230Z 31017KT 9999 3000NW BCFG SCT002 BKN004 20/18 Q1018 REDZ BECMG BKN010,2020-08-10 12:30:00.000000,GCXO,Tenerife,1018,hPa,"{SCT002,BKN004}",310,º,17,kt,,,,,9999,9999,m,20,C,REDZ BECMG BKN010,LIFR
GEML 101230Z 09006KT 350V160 9999 FEW020 27/23 Q1010,2020-08-10 12:30:00.000000,GEML,Melilla,1010,hPa,{FEW020},90,º,6,kt,350,º,160,º,9999,9999,m,27,C,"",VFR
LEAB 101230Z 34010KT 310V010 CAVOK 32/09 Q1017 NOSIG,2020-08-10 12:30:00.000000,LEAB,Albacete,1017,hPa,{No clouds},340,º,10,kt,310,º,10,º,CAVOK,9999,m,32,C,NOSIG,VFR
LEAL 101230Z 08012KT CAVOK 31/21 Q1012 NOSIG,2020-08-10 12:30:00.000000,LEAL,Alicante,1012,hPa,{No clouds},80,º,12,kt,,,,,CAVOK,9999,m,31,C,NOSIG,VFR
LEAM 101230Z 22007KT 190V260 CAVOK 31/20 Q1010,2020-08-10 12:30:00.000000,LEAM,Almeria,1010,hPa,{No clouds},220,º,7,kt,190,º,260,º,CAVOK,9999,m,31,C,"",VFR
LEAS 101230Z 32008KT 280V010 9999 FEW024 BKN031 21/19 Q1014 NOSIG,2020-08-10 12:30:00.000000,LEAS,Aviles,1014,hPa,"{FEW024,BKN031}",320,º,8,kt,280,º,10,º,9999,9999,m,21,C,NOSIG,VFR
LEBA 101230Z 07007KT 030V100 CAVOK 32/18 Q1011,2020-08-10 12:30:00.000000,LEBA,Cordoba,1011,hPa,{No clouds},70,º,7,kt,30,º,100,º,CAVOK,9999,m,32,C,"",VFR
LEBB 101230Z 01008KT 9999 SCT024 BKN032 25/20 Q1013 NOSIG,2020-08-10 12:30:00.000000,LEBB,Bilbao,1013,hPa,"{SCT024,BKN032}",10,º,8,kt,,,,,9999,9999,m,25,C,NOSIG,VFR
LEBL 101230Z 19013KT CAVOK 29/23 Q1014 NOSIG,2020-08-10 12:30:00.000000,LEBL,Barcelona,1014,hPa,{No clouds},190,º,13,kt,,,,,CAVOK,9999,m,29,C,NOSIG,VFR
LEBZ 101230Z 28004KT CAVOK 30/13 Q1011,2020-08-10 12:30:00.000000,LEBZ,Badajoz,1011,hPa,{No clouds},280,º,4,kt,,,,,CAVOK,9999,m,30,C,"",VFR
LECO 101230Z 36007KT 320V060 9999 BKN037 21/17 Q1014 NOSIG,2020-08-10 12:30:00.000000,LECO,La Coruna,1014,hPa,{BKN037},360,º,7,kt,320,º,60,º,9999,9999,m,21,C,NOSIG,VFR
LEGA 101230Z 29015KT 250V310 9999 SCT080TCU 33/07 Q1015,2020-08-10 12:30:00.000000,LEGA,Granada,1015,hPa,{SCT080TCU},290,º,15,kt,250,º,310,º,9999,9999,m,33,C,"",VFR
LEGE 101230Z 18011KT 140V230 CAVOK 32/20 Q1013,2020-08-10 12:30:00.000000,LEGE,Gerona,1013,hPa,{No clouds},180,º,11,kt,140,º,230,º,CAVOK,9999,m,32,C,"",VFR
LEGR 101230Z 28006KT 240V320 9999 FEW060 BKN090 32/10 Q1014,2020-08-10 12:30:00.000000,LEGR,Granada,1014,hPa,"{FEW060,BKN090}",280,º,6,kt,240,º,320,º,9999,9999,m,32,C,"",VFR
LEGT 101230Z 13005KT 9999 FEW060TCU 29/14 Q1015,2020-08-10 12:30:00.000000,LEGT,Madrid,1015,hPa,{FEW060TCU},130,º,5,kt,,,,,9999,9999,m,29,C,"",VFR
LEIB 101230Z 09010KT 050V130 CAVOK 30/23 Q1013 NOSIG,2020-08-10 12:30:00.000000,LEIB,Ibiza,1013,hPa,{No clouds},90,º,10,kt,50,º,130,º,CAVOK,9999,m,30,C,NOSIG,VFR
LEJR 101230Z VRB05KT 9999 FEW030 31/22 Q1011,2020-08-10 12:30:00.000000,LEJR,Jerez,1011,hPa,{FEW030},,º,5,kt,,,,,9999,9999,m,31,C,"",VFR
LELC 101230Z 06011KT 020V100 CAVOK 31/23 Q1012 NOSIG,2020-08-10 12:30:00.000000,LELC,Murcia,1012,hPa,{No clouds},60,º,11,kt,20,º,100,º,CAVOK,9999,m,31,C,NOSIG,VFR
LEMD 101230Z 14008KT 100V170 9999 FEW070CB SCT080 30/11 Q1015 NOSIG,2020-08-10 12:30:00.000000,LEMD,Madrid,1015,hPa,"{FEW070CB,SCT080}",140,º,8,kt,100,º,170,º,9999,9999,m,30,C,NOSIG,VFR
LEMG 101238Z 14010KT 100V170 9999 TSRA FEW025CB 28/22 Q1011 NOSIG,2020-08-10 12:38:00.000000,LEMG,Malaga,1011,hPa,{FEW025CB},140,º,10,kt,100,º,170,º,9999,9999,m,28,C,NOSIG,VFR
LEMH 101230Z 17009KT 140V200 CAVOK 30/21 Q1015,2020-08-10 12:30:00.000000,LEMH,Menorca,1015,hPa,{No clouds},170,º,9,kt,140,º,200,º,CAVOK,9999,m,30,C,"",VFR
LEMO 101230Z 28003KT CAVOK 31/19 Q1011 NOSIG,2020-08-10 12:30:00.000000,LEMO,Sevilla,1011,hPa,{No clouds},280,º,3,kt,,,,,CAVOK,9999,m,31,C,NOSIG,VFR
LEPP 101230Z 17008KT 120V260 9999 FEW039 36/09 Q1013,2020-08-10 12:30:00.000000,LEPP,Pamplona,1013,hPa,{FEW039},170,º,8,kt,120,º,260,º,9999,9999,m,36,C,"",VFR
LERI 101230Z 03009KT 350V080 CAVOK 36/12 Q1012 NOSIG,2020-08-10 12:30:00.000000,LERI,Murcia,1012,hPa,{No clouds},30,º,9,kt,350,º,80,º,CAVOK,9999,m,36,C,NOSIG,VFR
LERS 101230Z 14004KT 100V190 9999 FEW020 28/21 Q1015,2020-08-10 12:30:00.000000,LERS,Reus,1015,hPa,{FEW020},140,º,4,kt,100,º,190,º,9999,9999,m,28,C,"",VFR
LERT 101230Z 22007KT 180V260 9999 FEW012 27/22 Q1011 NOSIG,2020-08-10 12:30:00.000000,LERT,Rota,1011,hPa,{FEW012},220,º,7,kt,180,º,260,º,9999,9999,m,27,C,NOSIG,VFR
LESA 101230Z 25012KT 210V290 CAVOK 33/06 Q1013,2020-08-10 12:30:00.000000,LESA,Salamanca,1013,hPa,{No clouds},250,º,12,kt,210,º,290,º,CAVOK,9999,m,33,C,"",VFR
LESB 101230Z AUTO 23014KT CAVOK 31/19 Q1015,2020-08-10 12:30:00.000000,LESB,Son Bonet,1015,hPa,{No clouds},230,º,14,kt,,,,,CAVOK,9999,m,31,C,"",VFR
LESO 101230Z 01004KT 310V070 9999 SCT014 OVC030 25/21 Q1013,2020-08-10 12:30:00.000000,LESO,San Sebastian,1013,hPa,"{SCT014,OVC030}",10,º,4,kt,310,º,70,º,9999,9999,m,25,C,"",MVFR
LEST 101230Z 03006KT 350V080 9999 BKN015 OVC021 19/16 Q1015 NOSIG,2020-08-10 12:30:00.000000,LEST,Santiago,1015,hPa,"{BKN015,OVC021}",30,º,6,kt,350,º,80,º,9999,9999,m,19,C,NOSIG,MVFR
LESU 101230Z 22009KT 9999 -SHRA VCTS SCT060CB BKN065 22/17 Q1019,2020-08-10 12:30:00.000000,LESU,Seo De Urgel,1019,hPa,"{SCT060CB,BKN065}",220,º,9,kt,,,,,9999,9999,m,22,C,"",VFR
LETO 101230Z 14007KT 100V170 9999 SCT069CB 30/11 Q1015 NOSIG,2020-08-10 12:30:00.000000,LETO,Madrid,1015,hPa,{SCT069CB},140,º,7,kt,100,º,170,º,9999,9999,m,30,C,NOSIG,VFR
LEVC 101230Z 12010KT 9999 FEW050 32/22 Q1013 NOSIG,2020-08-10 12:30:00.000000,LEVC,Valencia,1013,hPa,{FEW050},120,º,10,kt,,,,,9999,9999,m,32,C,NOSIG,VFR
LEVD 101230Z 23009KT 170V280 9999 FEW055TCU 32/08 Q1014,2020-08-10 12:30:00.000000,LEVD,Valladolid,1014,hPa,{FEW055TCU},230,º,9,kt,170,º,280,º,9999,9999,m,32,C,"",VFR
LEVT 101230Z 04009KT 010V080 9999 FEW035TCU 29/19 Q1013,2020-08-10 12:30:00.000000,LEVT,Vitoria,1013,hPa,{FEW035TCU},40,º,9,kt,10,º,80,º,9999,9999,m,29,C,"",VFR
LEVX 101230Z VRB04KT CAVOK 26/16 Q1013 NOSIG,2020-08-10 12:30:00.000000,LEVX,Vigo,1013,hPa,{No clouds},,º,4,kt,,,,,CAVOK,9999,m,26,C,NOSIG,VFR
LEXJ 101230Z 33005KT 270V020 9999 BKN030 24/18 Q1013,2020-08-10 12:30:00.000000,LEXJ,Santander,1013,hPa,{BKN030},330,º,5,kt,270,º,20,º,9999,9999,m,24,C,"",MVFR
LEZG 101230Z 09006KT 030V120 9999 FEW060CB 32/17 Q1013,2020-08-10 12:30:00.000000,LEZG,Zaragoza,1013,hPa,{FEW060CB},90,º,6,kt,30,º,120,º,9999,9999,m,32,C,"",VFR
LEZL 101230Z 23003KT CAVOK 32/18 Q1010 NOSIG,2020-08-10 12:30:00.000000,LEZL,Sevilla,1010,hPa,{No clouds},230,º,3,kt,,,,,CAVOK,9999,m,32,C,NOSIG,VFR
LEPA 101230Z 28016KT CAVOK 30/24 Q1013 NOSIG,2020-08-10 12:30:00.000000,LEPA,Palma de Mallorca,1013,hPa,{No clouds},280,º,16,kt,,,,,CAVOK,9999,m,30,C,NOSIG,VFR
GCGM 101230Z 21007KT 170V250 9999 FEW014 25/20 Q1016 RMK R09/19006KT 120V260 ARP/23007KT 160V330,2020-08-10 12:30:00.000000,GCGM,La Gomera,1016,hPa,{FEW014},210,º,7,kt,170,º,250,º,9999,9999,m,25,C,RMK R09/19006KT 120V260 ARP/23007KT 160V330,VFR
LELO 101230Z 09010KT 060V130 CAVOK 32/15 Q1012,2020-08-10 12:30:00.000000,LELO,Logroño-Agoncillo,1012,hPa,{No clouds},90,º,10,kt,60,º,130,º,CAVOK,9999,m,32,C,"",VFR
LELN 101230Z 18007KT 110V270 9999 FEW040 29/08 Q1014,2020-08-10 12:30:00.000000,LELN,Leon,1014,hPa,{FEW040},180,º,7,kt,110,º,270,º,9999,9999,m,29,C,"",VFR
LEBG 101230Z 20014G24KT 150V240 9999 FEW055TCU 32/08 Q1014,2020-08-10 12:30:00.000000,LEBG,Burgos,1014,hPa,{FEW055TCU},200,º,14,kt,150,º,240,º,9999,9999,m,32,C,"",VFR
LELL 101230Z 15008KT 100V200 CAVOK 33/19 Q1014,2020-08-10 12:30:00.000000,LELL,Sabadell,1014,hPa,{No clouds},150,º,8,kt,100,º,200,º,CAVOK,9999,m,33,C,"",VFR
LEDA 101230Z AUTO 09006KT 060V150 CAVOK 28/14 Q1014,2020-08-10 12:30:00.000000,LEDA,Lleida,1014,hPa,{No clouds},90,º,6,kt,60,º,150,º,CAVOK,9999,m,28,C,"",VFR
LEHC 101230Z 15011KT 100V170 9999 VCTS FEW050CB 28/13 Q1016,2020-08-10 12:30:00.000000,LEHC,Huesca,1016,hPa,{FEW050CB},150,º,11,kt,100,º,170,º,9999,9999,m,28,C,"",VFR
LERL 101230Z 12009KT 070V150 9999 FEW049 27/16 Q1015,2020-08-10 12:30:00.000000,LERL,Ciudad Real,1015,hPa,{FEW049},120,º,9,kt,70,º,150,º,9999,9999,m,27,C,"",VFR
LETL 101230Z AUTO 36018G34KT CAVOK 28/10 Q1019,2020-08-10 12:30:00.000000,LETL,Teruel,1019,hPa,{No clouds},360,º,18,kt,,,,,CAVOK,9999,m,28,C,"",VFR
LEAG 101230Z AUTO 15009KT 110V200 CAVOK 26/22 Q1012,2020-08-10 12:30:00.000000,LEAG,Algeciras,1012,hPa,{No clouds},150,º,9,kt,110,º,200,º,CAVOK,9999,m,26,C,"",VFR
LEMI 101230Z 10011KT 060V150 CAVOK 34/16 Q1013,2020-08-10 12:30:00.000000,LEMI,Murcia,1013,hPa,{No clouds},100,º,11,kt,60,º,150,º,CAVOK,9999,m,34,C,"",VFR
GCFV 101300Z 05017KT 9999 FEW025 26/20 Q1014,2020-08-10 13:00:00.000000,GCFV,Fuerteventura,1014,hPa,{FEW025},50,º,17,kt,,,,,9999,9999,m,26,C,"",VFR
GCHI 101300Z 35019KT 320V020 9999 FEW020 26/19 Q1016,2020-08-10 13:00:00.000000,GCHI,Hierro,1016,hPa,{FEW020},350,º,19,kt,320,º,20,º,9999,9999,m,26,C,"",VFR
GCLA 101300Z 01014KT 340V050 9999 FEW030 26/20 Q1017,2020-08-10 13:00:00.000000,GCLA,Santa Cruz De La Palma,1017,hPa,{FEW030},10,º,14,kt,340,º,50,º,9999,9999,m,26,C,"",VFR
GCLP 101300Z 02028KT 350V050 9999 FEW025 27/17 Q1014 NOSIG,2020-08-10 13:00:00.000000,GCLP,Gran Canaria,1014,hPa,{FEW025},20,º,28,kt,350,º,50,º,9999,9999,m,27,C,NOSIG,VFR
GCRR 101300Z 36017KT 330V030 9999 FEW026 27/18 Q1014,2020-08-10 13:00:00.000000,GCRR,Arrecife,1014,hPa,{FEW026},360,º,17,kt,330,º,30,º,9999,9999,m,27,C,"",VFR
GCTS 101300Z 09022KT 9999 FEW030 28/18 Q1015 NOSIG,2020-08-10 13:00:00.000000,GCTS,Tenerife,1015,hPa,{FEW030},90,º,22,kt,,,,,9999,9999,m,28,C,NOSIG,VFR
GCXO 101300Z 30017KT 9999 FEW007 SCT010 20/17 Q1018 BECMG BKN010,2020-08-10 13:00:00.000000,GCXO,Tenerife,1018,hPa,"{FEW007,SCT010}",300,º,17,kt,,,,,9999,9999,m,20,C,BECMG BKN010,VFR
GEML 101300Z 06008KT 030V110 9999 FEW020 27/23 Q1010,2020-08-10 13:00:00.000000,GEML,Melilla,1010,hPa,{FEW020},60,º,8,kt,30,º,110,º,9999,9999,m,27,C,"",VFR
LEAB 101300Z 32012KT 300V360 CAVOK 33/09 Q1017 NOSIG,2020-08-10 13:00:00.000000,LEAB,Albacete,1017,hPa,{No clouds},320,º,12,kt,300,º,360,º,CAVOK,9999,m,33,C,NOSIG,VFR
LEAL 101300Z 08012KT CAVOK 31/23 Q1012 NOSIG,2020-08-10 13:00:00.000000,LEAL,Alicante,1012,hPa,{No clouds},80,º,12,kt,,,,,CAVOK,9999,m,31,C,NOSIG,VFR
LEAM 101300Z 23014KT 200V260 CAVOK 31/22 Q1010,2020-08-10 13:00:00.000000,LEAM,Almeria,1010,hPa,{No clouds},230,º,14,kt,200,º,260,º,CAVOK,9999,m,31,C,"",VFR
LEAS 101300Z 31010KT 280V340 9999 FEW024 BKN029 21/18 Q1014 NOSIG,2020-08-10 13:00:00.000000,LEAS,Aviles,1014,hPa,"{FEW024,BKN029}",310,º,10,kt,280,º,340,º,9999,9999,m,21,C,NOSIG,MVFR
LEBA 101300Z 05006KT 350V090 CAVOK 33/18 Q1010,2020-08-10 13:00:00.000000,LEBA,Cordoba,1010,hPa,{No clouds},50,º,6,kt,350,º,90,º,CAVOK,9999,m,33,C,"",VFR
LEBB 101300Z 36007KT 330V030 9999 SCT018 BKN032 25/20 Q1013 NOSIG,2020-08-10 13:00:00.000000,LEBB,Bilbao,1013,hPa,"{SCT018,BKN032}",360,º,7,kt,330,º,30,º,9999,9999,m,25,C,NOSIG,VFR
LEBL 101300Z 20012KT 160V220 9999 FEW030 29/23 Q1013 NOSIG,2020-08-10 13:00:00.000000,LEBL,Barcelona,1013,hPa,{FEW030},200,º,12,kt,160,º,220,º,9999,9999,m,29,C,NOSIG,VFR
LEBZ 101300Z 28005KT CAVOK 32/13 Q1011,2020-08-10 13:00:00.000000,LEBZ,Badajoz,1011,hPa,{No clouds},280,º,5,kt,,,,,CAVOK,9999,m,32,C,"",VFR
LECO 101300Z 36008KT 290V050 9999 BKN032 21/17 Q1014 NOSIG,2020-08-10 13:00:00.000000,LECO,La Coruna,1014,hPa,{BKN032},360,º,8,kt,290,º,50,º,9999,9999,m,21,C,NOSIG,VFR
LEGA 101300Z 29008KT 9999 SCT080TCU 33/07 Q1014,2020-08-10 13:00:00.000000,LEGA,Granada,1014,hPa,{SCT080TCU},290,º,8,kt,,,,,9999,9999,m,33,C,"",VFR
LEGE 101300Z 19013KT 150V220 CAVOK 32/20 Q1013,2020-08-10 13:00:00.000000,LEGE,Gerona,1013,hPa,{No clouds},190,º,13,kt,150,º,220,º,CAVOK,9999,m,32,C,"",VFR
LEGR 101300Z VRB01KT 9999 SCT060 BKN090 33/10 Q1013,2020-08-10 13:00:00.000000,LEGR,Granada,1013,hPa,"{SCT060,BKN090}",,º,1,kt,,,,,9999,9999,m,33,C,"",VFR
LEGT 101300Z 12006KT 9999 SCT080TCU 30/13 Q1015,2020-08-10 13:00:00.000000,LEGT,Madrid,1015,hPa,{SCT080TCU},120,º,6,kt,,,,,9999,9999,m,30,C,"",VFR
LEIB 101300Z 09009KT 050V160 CAVOK 30/22 Q1013 NOSIG,2020-08-10 13:00:00.000000,LEIB,Ibiza,1013,hPa,{No clouds},90,º,9,kt,50,º,160,º,CAVOK,9999,m,30,C,NOSIG,VFR
LEJR 101300Z VRB05KT 9999 FEW030 32/22 Q1010,2020-08-10 13:00:00.000000,LEJR,Jerez,1010,hPa,{FEW030},,º,5,kt,,,,,9999,9999,m,32,C,"",VFR
LELC 101300Z 05012KT 010V100 CAVOK 30/23 Q1012 NOSIG,2020-08-10 13:00:00.000000,LELC,Murcia,1012,hPa,{No clouds},50,º,12,kt,10,º,100,º,CAVOK,9999,m,30,C,NOSIG,VFR
LEMD 101300Z 13004KT 080V190 9999 FEW060TCU 30/11 Q1015 NOSIG,2020-08-10 13:00:00.000000,LEMD,Madrid,1015,hPa,{FEW060TCU},130,º,4,kt,80,º,190,º,9999,9999,m,30,C,NOSIG,VFR
LEMG 101300Z 16007KT 100V200 9999 FEW025TCU 28/23 Q1011 RETSRA TEMPO TSRA FEW020CB,2020-08-10 13:00:00.000000,LEMG,Malaga,1011,hPa,{FEW025TCU},160,º,7,kt,100,º,200,º,9999,9999,m,28,C,RETSRA TEMPO TSRA FEW020CB,VFR
LEMH 101300Z 15009KT 110V170 CAVOK 30/20 Q1015,2020-08-10 13:00:00.000000,LEMH,Menorca,1015,hPa,{No clouds},150,º,9,kt,110,º,170,º,CAVOK,9999,m,30,C,"",VFR
LEMO 101300Z 25005KT 190V350 CAVOK 32/18 Q1010 NOSIG,2020-08-10 13:00:00.000000,LEMO,Sevilla,1010,hPa,{No clouds},250,º,5,kt,190,º,350,º,CAVOK,9999,m,32,C,NOSIG,VFR
LEPP 101300Z 18014KT 140V200 9999 FEW039 36/10 Q1013,2020-08-10 13:00:00.000000,LEPP,Pamplona,1013,hPa,{FEW039},180,º,14,kt,140,º,200,º,9999,9999,m,36,C,"",VFR
LERI 101300Z 03010KT 350V060 CAVOK 36/13 Q1012 NOSIG,2020-08-10 13:00:00.000000,LERI,Murcia,1012,hPa,{No clouds},30,º,10,kt,350,º,60,º,CAVOK,9999,m,36,C,NOSIG,VFR
LERS 101300Z 18005KT 130V210 9999 FEW020 FEW050CB 28/23 Q1015,2020-08-10 13:00:00.000000,LERS,Reus,1015,hPa,"{FEW020,FEW050CB}",180,º,5,kt,130,º,210,º,9999,9999,m,28,C,"",VFR
LERT 101300Z 24007KT 200V300 9999 FEW012 27/22 Q1011 NOSIG,2020-08-10 13:00:00.000000,LERT,Rota,1011,hPa,{FEW012},240,º,7,kt,200,º,300,º,9999,9999,m,27,C,NOSIG,VFR
LESA 101300Z 22008KT 170V270 CAVOK 33/06 Q1013,2020-08-10 13:00:00.000000,LESA,Salamanca,1013,hPa,{No clouds},220,º,8,kt,170,º,270,º,CAVOK,9999,m,33,C,"",VFR
LESB 101300Z AUTO 22014KT CAVOK 32/16 Q1015,2020-08-10 13:00:00.000000,LESB,Son Bonet,1015,hPa,{No clouds},220,º,14,kt,,,,,CAVOK,9999,m,32,C,"",VFR
LESO 101300Z 01004KT 320V070 9999 FEW012 SCT018 BKN026 25/21 Q1013,2020-08-10 13:00:00.000000,LESO,San Sebastian,1013,hPa,"{FEW012,SCT018,BKN026}",10,º,4,kt,320,º,70,º,9999,9999,m,25,C,"",MVFR
LEST 101300Z 01009KT 340V040 9999 BKN015 OVC021 19/16 Q1015 NOSIG,2020-08-10 13:00:00.000000,LEST,Santiago,1015,hPa,"{BKN015,OVC021}",10,º,9,kt,340,º,40,º,9999,9999,m,19,C,NOSIG,MVFR
LESU 101300Z 34012KT 300V020 9999 -RA SCT029 BKN050 24/15 Q1018,2020-08-10 13:00:00.000000,LESU,Seo De Urgel,1018,hPa,"{SCT029,BKN050}",340,º,12,kt,300,º,20,º,9999,9999,m,24,C,"",VFR
LETO 101300Z 12004KT 070V170 9999 SCT069 30/11 Q1015 NOSIG,2020-08-10 13:00:00.000000,LETO,Madrid,1015,hPa,{SCT069},120,º,4,kt,70,º,170,º,9999,9999,m,30,C,NOSIG,VFR
LEVC 101300Z 13008KT 090V160 9999 FEW050 32/22 Q1013 NOSIG,2020-08-10 13:00:00.000000,LEVC,Valencia,1013,hPa,{FEW050},130,º,8,kt,90,º,160,º,9999,9999,m,32,C,NOSIG,VFR
LEVD 101300Z 21012KT 170V250 9999 FEW055TCU 32/05 Q1013,2020-08-10 13:00:00.000000,LEVD,Valladolid,1013,hPa,{FEW055TCU},210,º,12,kt,170,º,250,º,9999,9999,m,32,C,"",VFR
LEVT 101300Z 04009KT 350V090 9999 FEW035TCU 29/19 Q1013,2020-08-10 13:00:00.000000,LEVT,Vitoria,1013,hPa,{FEW035TCU},40,º,9,kt,350,º,90,º,9999,9999,m,29,C,"",VFR
LEVX 101300Z VRB05KT CAVOK 27/17 Q1013 NOSIG,2020-08-10 13:00:00.000000,LEVX,Vigo,1013,hPa,{No clouds},,º,5,kt,,,,,CAVOK,9999,m,27,C,NOSIG,VFR
LEXJ 101300Z 35004KT 300V070 9999 BKN030 24/19 Q1013,2020-08-10 13:00:00.000000,LEXJ,Santander,1013,hPa,{BKN030},350,º,4,kt,300,º,70,º,9999,9999,m,24,C,"",MVFR
LEZG 101300Z 19005KT 9999 FEW060CB 33/13 Q1013,2020-08-10 13:00:00.000000,LEZG,Zaragoza,1013,hPa,{FEW060CB},190,º,5,kt,,,,,9999,9999,m,33,C,"",VFR
LEZL 101300Z 23008KT 190V320 CAVOK 32/18 Q1010 NOSIG,2020-08-10 13:00:00.000000,LEZL,Sevilla,1010,hPa,{No clouds},230,º,8,kt,190,º,320,º,CAVOK,9999,m,32,C,NOSIG,VFR
LEPA 101300Z 26013KT 230V300 CAVOK 31/24 Q1014 NOSIG,2020-08-10 13:00:00.000000,LEPA,Palma de Mallorca,1014,hPa,{No clouds},260,º,13,kt,230,º,300,º,CAVOK,9999,m,31,C,NOSIG,VFR
GCGM 101300Z 21008KT 160V260 9999 SCT017 25/20 Q1016 RMK R09/VRB06KT ARP/25008KT 190V340,2020-08-10 13:00:00.000000,GCGM,La Gomera,1016,hPa,{SCT017},210,º,8,kt,160,º,260,º,9999,9999,m,25,C,RMK R09/VRB06KT ARP/25008KT 190V340,VFR
LELO 101300Z 10011KT 070V130 CAVOK 32/15 Q1012,2020-08-10 13:00:00.000000,LELO,Logroño-Agoncillo,1012,hPa,{No clouds},100,º,11,kt,70,º,130,º,CAVOK,9999,m,32,C,"",VFR
LELN 101300Z 21011G23KT 170V240 9999 FEW040 30/05 Q1014,2020-08-10 13:00:00.000000,LELN,Leon,1014,hPa,{FEW040},210,º,11,kt,170,º,240,º,9999,9999,m,30,C,"",VFR
LEBG 101300Z 22014KT 170V250 9999 SCT055TCU 33/08 Q1014,2020-08-10 13:00:00.000000,LEBG,Burgos,1014,hPa,{SCT055TCU},220,º,14,kt,170,º,250,º,9999,9999,m,33,C,"",VFR
LELL 101300Z 12010KT 080V150 CAVOK 32/21 Q1014,2020-08-10 13:00:00.000000,LELL,Sabadell,1014,hPa,{No clouds},120,º,10,kt,80,º,150,º,CAVOK,9999,m,32,C,"",VFR
LEDA 101300Z AUTO 21012KT 160V250 CAVOK 28/16 Q1015,2020-08-10 13:00:00.000000,LEDA,Lleida,1015,hPa,{No clouds},210,º,12,kt,160,º,250,º,CAVOK,9999,m,28,C,"",VFR
LEHC 101300Z 12009G20KT 070V170 9999 FEW022 FEW050CB 24/16 Q1016,2020-08-10 13:00:00.000000,LEHC,Huesca,1016,hPa,"{FEW022,FEW050CB}",120,º,9,kt,70,º,170,º,9999,9999,m,24,C,"",VFR
LERL 101300Z 08010KT 040V130 9999 FEW049 28/16 Q1014,2020-08-10 13:00:00.000000,LERL,Ciudad Real,1014,hPa,{FEW049},80,º,10,kt,40,º,130,º,9999,9999,m,28,C,"",VFR
LETL 101300Z AUTO 36017KT CAVOK 29/09 Q1019,2020-08-10 13:00:00.000000,LETL,Teruel,1019,hPa,{No clouds},360,º,17,kt,,,,,CAVOK,9999,m,29,C,"",VFR
LEAG 101300Z AUTO VRB05G23KT 9999 FEW021 26/22 Q1012,2020-08-10 13:00:00.000000,LEAG,Algeciras,1012,hPa,{FEW021},,º,5,kt,,,,,9999,9999,m,26,C,"",VFR
LEMI 101300Z 10012KT 060V150 CAVOK 34/15 Q1013,2020-08-10 13:00:00.000000,LEMI,Murcia,1013,hPa,{No clouds},100,º,12,kt,60,º,150,º,CAVOK,9999,m,34,C,"",VFR
GCFV 101330Z 05016KT 9999 FEW025 27/20 Q1014,2020-08-10 13:30:00.000000,GCFV,Fuerteventura,1014,hPa,{FEW025},50,º,16,kt,,,,,9999,9999,m,27,C,"",VFR
GCHI 101330Z 35018KT 320V020 9999 FEW020 26/19 Q1016,2020-08-10 13:30:00.000000,GCHI,Hierro,1016,hPa,{FEW020},350,º,18,kt,320,º,20,º,9999,9999,m,26,C,"",VFR
GCLA 101330Z 01015KT 340V050 9999 FEW030 26/20 Q1016,2020-08-10 13:30:00.000000,GCLA,Santa Cruz De La Palma,1016,hPa,{FEW030},10,º,15,kt,340,º,50,º,9999,9999,m,26,C,"",VFR
GCLP 101330Z 02028KT 9999 FEW028 27/18 Q1014 NOSIG,2020-08-10 13:30:00.000000,GCLP,Gran Canaria,1014,hPa,{FEW028},20,º,28,kt,,,,,9999,9999,m,27,C,NOSIG,VFR
GCRR 101330Z 36017KT 9999 FEW026 28/18 Q1014,2020-08-10 13:30:00.000000,GCRR,Arrecife,1014,hPa,{FEW026},360,º,17,kt,,,,,9999,9999,m,28,C,"",VFR
